Inverse Dynamics Generalized Forces
version=1
nRows=136
nColumns=40
inDegrees=no
endheader
time	pelvis_tilt_moment	pelvis_list_moment	pelvis_rotation_moment	pelvis_tx_force	pelvis_ty_force	pelvis_tz_force	hip_flexion_r_moment	hip_adduction_r_moment	hip_rotation_r_moment	hip_flexion_l_moment	hip_adduction_l_moment	hip_rotation_l_moment	lumbar_extension_moment	lumbar_bending_moment	lumbar_rotation_moment	knee_angle_r_moment	knee_angle_r_beta_force	knee_angle_l_moment	knee_angle_l_beta_force	arm_flex_r_moment	arm_add_r_moment	arm_rot_r_moment	arm_flex_l_moment	arm_add_l_moment	arm_rot_l_moment	ankle_angle_r_moment	ankle_angle_l_moment	elbow_flex_r_moment	elbow_flex_l_moment	subtalar_angle_r_moment	subtalar_angle_l_moment	pro_sup_r_moment	pro_sup_l_moment	mtp_angle_r_moment	mtp_angle_l_moment	wrist_flex_r_moment	wrist_dev_r_moment	wrist_flex_l_moment	wrist_dev_l_moment
      0.45000000	     50.81959795	    -26.84441443	     38.20866833	    -29.09838978	    793.57415709	     55.59761775	     -0.08328596	     34.41316765	     -0.56726184	     51.11423183	      5.61158161	     24.19436608	     12.57058376	    -28.38600941	     11.44804994	     28.01247944	     -0.02935281	     28.81515341	     -0.02624786	      5.05407578	     -1.13031565	     -2.00972102	     -8.77354122	     -1.53888323	      1.11031418	    -33.13925892	    -23.24451401	      1.93501960	     -0.21376970	     21.14649664	    -26.69539124	     -0.21041789	      0.16201964	     -0.08210413	     -0.12903222	     -0.07609805	     -0.39887783	      0.20875309	      0.18538745
      0.46000000	     31.56300361	    -14.30360372	     12.14264633	     41.90758624	    691.64110090	     92.52081157	     10.80901480	     44.15299979	      0.68290476	     53.26080813	     14.05121182	     24.00330978	     -8.80099762	    -41.26227877	    -11.66564225	     30.37318714	     -0.03030977	     31.23274814	     -0.03097087	    -23.14867691	      6.64569074	     10.43119191	     13.23860815	     -5.42222730	     -7.73190593	    -38.91557396	    -27.66552868	     -1.82467263	     -0.78315932	     22.95184345	    -29.57283045	      1.05634014	     -0.87283572	      0.41997032	     -0.21273373	      1.21849065	      1.68244988	     -1.34324260	     -0.91151868
      0.47000000	     46.85646439	     14.80627053	     50.25199337	    -24.92839977	    867.00647196	     50.05153207	     -5.52002872	     39.11082842	     -1.35896735	     44.70075228	     -1.75031541	     27.71334841	     -5.53149075	    -39.65810942	     10.99361552	     28.34440823	     -0.03200692	     41.12961895	     -0.02508313	     20.22720703	    -12.36969046	    -13.09676621	    -14.09542610	     -0.49195070	      6.37464697	    -30.28223628	    -35.99301065	      2.40329545	      3.62083817	     21.24882949	    -32.00806919	     -1.19288950	      0.84938332	     -0.39104578	     -0.05607074	     -1.42182901	     -2.00662729	      1.61845556	      0.54298777
      0.48000000	     51.76081458	     13.34801275	     33.53924605	     23.05389916	    779.43538234	     57.60129947	      3.70180858	     39.82021285	      0.03013894	     45.22498518	      0.82673327	     28.68889395	    -19.02797397	    -30.65478061	    -17.98819442	     29.18148121	     -0.03138213	     45.97154337	     -0.02676557	    -11.84414693	      4.22633928	      3.59381188	      2.11587737	      1.86828664	     -0.80600455	    -35.28110590	    -42.09871471	     -0.68112261	     -0.12052966	     23.10060196	    -34.39771563	      0.30627444	     -0.15230431	      0.09659232	     -0.05797351	      0.40340339	      0.58443439	     -0.23493701	     -0.02341929
      0.49000000	     64.36795578	    -13.03353249	     50.68383534	     -4.58707800	    830.80385171	     43.97317912	      1.95988577	     45.31422695	     -0.26876765	     48.76342529	     -6.78968553	     33.37949616	     10.15448715	    -35.70222891	     11.21026756	     30.15889599	     -0.03364094	     50.96989657	     -0.02714673	      2.95217546	     -2.76657459	     -0.77933646	     -0.92786060	     -4.92923205	     -1.24997029	    -34.22203122	    -49.87423468	      2.28546411	      1.06203765	     23.24038255	    -37.03008132	     -0.01899928	     -0.06576582	     -0.01093900	     -0.04181496	      0.18411653	     -0.25118367	      0.00490169	     -0.25475487
      0.50000000	     63.59080325	     25.77102275	     52.67067935	      4.77286652	    862.32432250	     81.46318447	     -3.12481408	     39.60614791	     -0.64478298	     52.13491040	     -7.26500123	     35.33520637	    -20.43081782	    -29.63503201	     -9.76465545	     29.75415080	     -0.03173245	     56.60009000	     -0.02885567	     -3.75456034	      2.25880038	     -0.05531412	     -3.72479099	      0.41445038	      1.04801820	    -33.56226889	    -58.29669939	     -0.28554478	      0.64091605	     23.40196041	    -39.36418887	     -0.05669628	      0.13014036	     -0.11996859	     -0.03772675	     -0.08876932	      0.04754168	      0.26157782	      0.12113333
      0.51000000	     62.27688549	     -9.25286178	     41.80655660	      1.77610124	    847.08934890	     57.75045279	      4.70683116	     30.14848102	     -0.29581601	     49.02808894	    -19.06138350	     38.81674500	      5.02862759	    -37.01443407	      0.71749070	     19.57944750	     -0.03325035	     65.32304458	     -0.02584562	     -6.25230320	      4.24120034	      5.83559935	      9.58591747	    -12.76286302	     -6.74678258	    -23.67577693	    -68.73029162	      3.75199936	      0.57628128	     13.32744772	    -41.56401639	      0.56664286	     -0.67422995	      0.20024915	      0.02444770	      1.24427421	      0.54236015	     -0.93888866	     -0.96410929
      0.52000000	     67.77084396	     27.54601005	     58.73666396	     10.25581399	    964.66420447	     36.39981275	     -5.14544285	     40.15486577	     -0.73135628	     55.58005801	    -19.24667188	     42.14666981	    -19.88243696	    -39.21497129	     -6.68924319	     27.29637223	     -0.03158004	     69.81100632	     -0.03101732	      1.59194779	     -6.01630545	     -7.13244322	    -11.31283620	      9.68534200	      6.60528652	    -29.30645956	    -77.30951633	     -3.30091226	      2.67212234	     23.34555637	    -44.09416938	     -0.66568498	      0.75035902	     -0.39755362	     -0.01408500	     -1.36039629	     -0.65565523	      1.42919640	      0.71317413
      0.53000000	    108.26108189	    -16.24983426	     77.82665970	    -19.10548997	    883.49563295	     44.29778551	      2.79605419	     45.59247365	      0.11045795	     61.38520737	    -30.43003378	     46.11473834	      2.84662334	    -24.02337155	     -1.41572916	     31.63668484	     -0.03417151	     76.97392621	     -0.02955862	     -1.61027540	     -2.26297954	      1.50033162	      3.94694045	     -5.82196999	     -2.70373426	    -36.50902158	    -86.56327948	      2.82724689	      0.14496307	     25.20267113	    -47.08109587	      0.21230799	     -0.28069497	      0.19599333	     -0.06118376	      0.59306534	      0.02482084	     -0.45064923	     -0.34392313
      0.54000000	     84.72168224	     43.73545452	     74.28831930	      8.57282021	    917.68924959	     75.04520439	     -4.49883555	     41.46190279	     -0.75381927	     50.13611240	    -40.30249643	     48.72680274	    -30.08642802	    -45.87386891	     -9.94269969	     29.50345640	     -0.02874247	     87.50457858	     -0.02638207	      1.26014309	      2.39886199	     -0.46876506	     -3.91311128	     -0.65537225	      0.96082848	    -32.35281892	   -100.64602379	      2.25125882	      1.50418853	     24.59965187	    -48.20837130	     -0.08322686	      0.15686692	     -0.17530222	      0.24255498	      0.14204899	     -0.21522440	      0.42596748	      0.00081666
      0.55000000	    143.97266771	    -12.70066010	    106.15303140	    -60.85949638	    987.15688824	     66.61203077	      4.28925695	     41.17590107	     -0.39854859	     68.31078075	    -58.56940116	     59.94756362	     -1.59393625	    -18.15711542	     -2.88853161	     27.93371291	     -0.03786744	     97.24389301	     -0.03018284	     -2.47815347	      1.72265902	      0.39745855	      2.21679861	     -2.93127690	     -0.00023853	    -33.54506977	   -112.27082899	      0.10460486	      2.55618663	     25.18998524	    -56.39681073	     -0.01157913	      0.06458417	     -0.06989987	     -0.13892815	     -0.00872678	      0.09960287	      0.31454741	     -0.19549772
      0.56000000	    112.55357666	    -43.12416655	     77.46552475	     80.11326126	    847.37144193	    -19.14502034	      0.77104920	     51.98621887	      1.09969566	     65.28764132	    -55.38758455	     56.47529508	     23.50002304	    -41.42261217	      9.96889683	     35.34179735	     -0.03197873	    100.46108530	     -0.02790751	    -20.49815573	     -6.27605018	      2.95632396	      2.90548486	     -6.94974489	     -6.07755857	    -38.45155258	   -119.49951399	     -5.48038995	     -4.93743660	     27.15012890	    -53.22910452	      0.35070992	     -0.78374841	      0.38543478	     -0.01038163	     -0.15345530	      0.95450661	     -1.70550424	     -0.30457468
      0.57000000	    120.07901132	     78.90129144	    112.49033898	   -120.11271761	   1131.32985101	    163.92408436	     -6.65327836	     24.40723043	     -1.69552692	     65.70254630	    -65.49430798	     60.36874438	    -63.95408184	    -33.91234228	    -21.73336333	     22.28752491	     -0.03166593	    110.00300467	     -0.02439490	     20.20404293	      7.83274881	     -2.97206660	     -7.57888146	     -0.51624040	      4.54971991	    -26.96934283	   -131.23947236	      8.34159848	      5.73839797	     24.26465917	    -54.34638909	     -0.37777745	      0.73523924	     -0.59558498	      0.16540746	      0.35573795	     -1.05981814	      1.70456247	      0.03253164
      0.58000000	    104.45509648	    -60.72291534	     50.65693623	     87.18529116	    944.87219106	    -67.29687044	      8.87307966	     48.19414667	      0.86750233	     61.72493136	    -71.24989643	     63.60449214	     62.59959422	    -57.52852232	     15.52054985	     26.39511561	     -0.05647819	    117.33282550	     -0.04568200	    -22.82799654	    -10.34594895	     -1.18398049	     19.16211619	      0.68842055	     -0.70838697	    -34.42414880	   -141.80949975	    -10.10160159	      7.62010222	     27.10024647	    -56.41751912	     -0.01033386	     -0.11834912	      0.00374232	      0.13460371	     -1.14665645	      0.70576999	      0.65841567	     -0.62658045
      0.59000000	    181.05081077	    116.70965174	    176.60074547	   -141.29789942	   1109.33656868	    239.38239389	     -5.67344765	     32.85892811	     -0.90980085	     79.88972589	    -86.16242096	     67.97952432	   -139.94617073	    -13.61256877	    -48.98263515	     33.25139784	     -0.01036087	    126.88731269	     -0.00194071	     17.54983841	      6.07291752	      0.48929693	    -27.14329378	     -1.53955296	      0.48944789	    -35.71571908	   -150.13686253	     13.26063518	    -10.05735505	     26.46617898	    -60.19599354	      0.02315989	      0.07442902	      0.06037295	     -0.13278586	      1.44256536	     -0.91569108	     -1.00943016	      0.89813638
      0.60000000	    128.04055519	    -91.51268870	     68.71645741	    127.09231304	    888.62176178	    -87.20104588	      5.26344240	     43.42213014	      1.26364690	     59.02432059	    -89.93763501	     70.09611463	     87.08638528	    -47.54437848	     32.99553415	     26.08567353	     -0.05306452	    135.91402663	     -0.03918971	    -21.44138335	     -5.56849863	      0.88894092	      5.18230702	     -3.73297934	     -3.07897938	    -30.20657464	   -164.07746179	     -5.58087978	      1.28361184	     18.54172845	    -61.12939147	      0.14763273	     -0.38722567	      0.65714618	      0.31234304	     -0.28127289	      0.54837542	     -0.36956362	     -0.49518991
      0.61000000	     99.02435601	     34.97534132	     68.31637386	   -154.77726908	   1316.40030292	     56.23930119	     -1.92596366	      6.60252515	     -2.70369814	     80.32219499	    -92.04115900	     73.92507672	     -9.94641950	    -65.55620570	    -16.38558598	      7.58674522	     -0.05836859	    142.06627781	     -0.04675535	     14.12176320	     -3.61423686	     -3.40184507	     39.98762931	     -1.98127508	      3.15117831	    -19.94184574	   -166.64971495	      0.01929240	     20.50489864	     23.87228042	    -65.48468942	     -0.28372976	      0.53309887	     -1.21449397	     -0.26943501	     -0.66479141	     -0.31064495	      2.85030331	     -1.22319611
      0.62000000	    226.72720094	     72.79231632	    195.95111217	     70.21493078	    955.12017397	    178.62576139	      4.77848095	     58.07780341	      1.67284738	     45.40843666	   -107.33049310	     74.38117160	    -84.65490966	      8.59021703	    -12.43930611	     45.23403035	     -0.01637226	    155.14227728	      0.00306299	    -21.05833281	     12.86791515	      5.90540510	    -68.11775148	     -4.95541243	     -4.41231257	    -46.28422068	   -185.60198189	      3.57553425	    -28.65672337	     30.76848957	    -63.08040185	      0.33167136	     -0.60434726	      0.94602488	      0.62910872	      1.16533900	      0.45446291	     -3.79599488	      1.67281944
      0.63000000	     54.66506046	    -28.26999896	     14.83492787	    -28.35787456	   1395.16173530	    -75.37584178	      1.21048330	    -14.24879868	     -0.20666320	     87.21908334	    -94.88198856	     78.71102904	     48.50503614	    -79.43641374	     -3.52121588	    -10.13482425	     -0.07375552	    151.91182286	     -0.06180577	      2.04212613	    -17.51983983	     -6.68148195	     35.43138287	      5.29100474	      3.83884151	     -1.09466958	   -178.51405786	     -5.40415523	     18.81699739	      4.16891312	    -68.55126613	     -0.35253917	      0.52087954	     -0.96663632	     -0.58011929	     -1.37025528	     -0.30467974	      2.74788410	     -0.92455344
      0.64000000	    235.27756206	     61.14649914	    192.70995646	    -84.17956946	    952.79512365	    188.35012887	      3.77799191	     52.25484012	      1.30881675	     43.82161623	   -124.69323872	     80.99701870	    -56.16764931	    -12.42396980	     -1.98079653	     41.25472594	     -0.02679120	    175.89641167	     -0.00988077	      0.71065545	     14.66977620	      5.44174351	     -1.21439168	    -13.77915202	     -3.80228410	    -43.71845165	   -203.77675587	      7.03099468	     -2.08524275	     30.37096106	    -67.61554101	      0.26603226	     -0.37397438	      0.81596498	      0.68509258	      1.27855495	      0.15856471	     -0.85234319	     -0.39804491
      0.65000000	    115.46931969	      5.16559707	     74.32006030	      5.13014229	   1397.15128719	     -1.80116263	      0.53965608	     24.97520464	     -0.52458038	     76.09336736	    -86.91145836	     70.25199249	     14.90232186	    -49.86830282	     -7.65935898	     19.72171983	     -0.06266042	    163.68753679	     -0.04807863	     -4.96385189	     -6.79208972	     -2.34946181	     -1.97588492	      3.91080424	      1.44503761	    -29.36547912	   -196.55332744	     -2.22406225	      2.40046671	     27.93380343	    -66.33551543	     -0.12956347	      0.17411221	     -0.42290850	     -0.43667272	     -0.50266320	     -0.05084905	      0.57686537	      0.03755326
      0.66000000	     90.65646335	     74.51744109	     80.92737548	    -30.66575306	   1344.83172482	     81.84554213	      1.49262269	     37.94405688	      0.70711448	     35.86477774	    -16.41007714	     21.77646156	    -22.24396727	    -23.74346461	     -5.91315802	     31.60642570	     -0.04693645	    168.06302708	     -0.03093899	     -7.11412238	     -2.62988123	     -0.80716729	      1.11277248	     -4.42992164	     -1.49598842	    -37.26205613	   -212.97362487	     -1.49227303	      0.27341695	     30.02916823	    -33.43843373	     -0.05332437	     -0.16699661	      0.29173933	      0.11041131	     -0.29113246	      0.09513749	     -0.22396470	     -0.19766793
      0.67000000	     27.11257758	    101.11284254	     29.42281661	    -60.11648591	   1607.17770514	    152.02619597	      2.01673204	     15.05549360	     -1.34590204	     56.45729555	     -1.39338807	     23.53010985	    -36.22403761	    -44.51567869	    -22.90274305	     17.87214072	     -0.06385755	    162.00465555	     -0.04243771	      7.68920868	      7.03715597	      1.98337350	     -7.38183167	      1.46958841	      1.86393167	    -28.15421682	   -211.59839849	      7.66309933	      1.18381441	     28.41691480	    -24.95280212	      0.11053607	      0.29393249	     -0.53620878	     -0.18690918	      1.03581616	     -0.35771343	      0.57722083	      0.13229984
      0.68000000	     82.12330955	      2.46065782	     77.30029246	     74.21209859	   1306.54462518	    -62.65966362	     -9.85127940	     61.68303987	      2.14167940	     32.57148914	     13.68047556	      4.66863991	     47.90035069	    -18.59029361	     29.83796869	     53.20081474	     -0.05068779	    169.27494856	     -0.02747620	    -23.33088518	    -14.04314745	     -3.28612557	      7.79064518	     -6.18685387	     -2.81778636	    -45.56768574	   -213.79937566	    -11.89810219	      1.78229536	     33.52299932	    -10.57473784	     -0.17046165	     -0.34661721	      0.94059759	      0.08644280	     -1.67261217	      0.68421049	     -0.32312920	     -0.49345126
      0.69000000	      0.25344270	    161.62868054	     26.28692609	    -31.95520332	   1619.09515249	    199.93257017	      0.81835587	     18.04792812	      0.25709053	     37.73464928	     32.11070726	     -4.44156726	    -60.49981256	    -27.29611048	    -27.55631586	     27.63792356	     -0.07995076	    162.24859476	     -0.04305879	      8.30627374	      5.70535460	      0.96905976	     -8.54216242	      1.02499969	      0.92776175	    -29.26557191	   -209.14033135	      7.63341201	     -0.68628640	     30.81910161	    -12.57838574	      0.06292533	      0.13975068	     -0.44039402	     -0.22104344	      0.94692925	     -0.50944840	      0.20189124	      0.18262721
      0.70000000	     30.03532973	     56.54488464	     28.71876569	     21.96166342	   1469.62845753	    -56.37139094	    -13.90956867	     22.08486312	     -0.53976491	     14.66159867	     17.95209083	     -8.66071885	     45.81966642	    -21.90599274	      6.66357359	     29.18306031	     -0.06323696	    179.24375967	     -0.03599830	     -6.66714165	     -0.73460375	      0.56147292	      3.89802631	     -6.25919094	     -0.99226943	    -26.18134468	   -213.01629229	     -1.84666691	      3.11519367	     22.32621191	     -7.36048716	      0.02445191	     -0.03738199	      0.16552735	     -0.05624410	     -0.15160608	      0.26788506	      0.22494198	     -0.44285909
      0.71000000	     36.35730366	    184.95887008	     60.00332662	     79.92075267	   1544.01590493	     76.14875474	    -27.47866247	     41.34676122	     -0.33569872	      3.30984152	     25.55338931	    -21.00980064	    -46.15932302	    -27.34224696	    -15.30721713	     45.16523178	     -0.04848424	    184.94456534	     -0.02900787	     -3.67196833	     -1.63368568	     -0.67949359	     -5.62803497	      2.94579142	      0.60866311	    -36.86697964	   -212.87452881	      1.48327247	     -0.80793335	     34.39511771	      0.55654545	     -0.02087099	      0.04577495	      0.27234946	     -0.08702306	      0.10122334	     -0.15759291	      0.05575655	      0.20920257
      0.72000000	      1.96263663	    132.42437291	     29.52294876	     15.31015197	   1489.89061412	    -44.46919527	    -26.08676521	     21.91535443	     -0.22496256	    -15.59800991	     39.46389756	    -37.11056131	     22.81759851	    -24.66207001	      8.03236007	     35.56169011	     -0.05606637	    187.02520361	     -0.03564814	     -1.81912889	     -1.08427372	      0.11812522	      1.74153034	     -4.76748302	     -0.75858722	    -33.06453192	   -208.49022912	      0.16477256	      2.40509727	     34.66236127	     11.77737428	      0.02019198	     -0.03143590	     -0.05461484	     -0.07878962	      0.02514048	      0.04670461	      0.20938243	     -0.33479867
      0.73000000	    -66.43064216	    145.26533899	    -28.77376887	    -26.68083249	   1565.18076074	     -1.80197736	      4.78450536	    -27.03390755	     -0.84881228	    -42.79263466	     59.90323492	    -61.07851501	     15.51701300	    -11.58329333	     -3.01114671	      6.60569360	     -0.07735681	    182.19587865	     -0.03884243	     -6.52282560	     -3.88861276	     -1.08239301	     -8.18584732	      4.52862916	      0.99859951	    -24.49370785	   -196.02920026	     -1.95453653	     -1.76117258	     33.27272875	     33.32462663	     -0.04507792	      0.09267430	     -0.73007108	     -0.06960492	     -0.30210049	      0.04852710	     -0.02260932	      0.34579879
      0.74000000	    -64.77973381	    215.11139009	    -13.07275994	    -64.56362014	   1396.28470794	    118.73537033	    -15.53495295	      3.32263094	     -0.87315751	    -50.73994903	     89.32001754	    -81.45742583	    -38.94127877	    -22.18005916	    -17.70570379	     22.59840355	     -0.03795258	    159.24911527	     -0.02688653	     -2.08230087	     13.55222167	      4.53966778	     16.00259391	    -17.45134879	     -2.39167837	    -30.83904057	   -168.73500502	      2.91198391	      7.16507417	     35.48955452	     51.76923777	      0.17530442	     -0.10088392	     -0.14607886	     -0.04514502	      0.65977821	      0.36319175	      0.45239700	     -1.02324769
      0.75000000	   -141.36723885	     94.35605013	    -84.98916560	     15.29661018	   1349.20250592	   -132.96686195	      2.22496708	    -15.76211711	     -0.36346348	    -59.93603509	    111.58775128	    -95.43721015	     40.35716324	    -31.71535429	     10.63556541	     10.23820599	     -0.05437755	    128.01873448	     -0.03125577	     -4.17112889	    -18.72542037	     -5.80260767	    -18.85089660	     14.39724182	      1.93959491	    -27.18850938	   -134.42638625	     -1.80823316	     -5.42564648	     34.51139880	     64.20289700	     -0.20850175	      0.09699901	     -0.39074109	     -0.06149339	     -0.63155097	     -0.51839619	     -0.25055783	      0.82205798
      0.76000000	   -142.38341218	    167.15722354	    -80.25379320	    -58.27014469	   1175.33952695	     26.20969218	     -2.50474631	    -10.80972426	     -0.08098868	    -61.52847899	    144.06727571	   -108.39133751	     -7.25304849	     -6.26875132	     -7.50481469	     13.61282528	     -0.05279578	     95.74567316	     -0.03831515	     -4.33467864	     -0.06234259	      0.03625577	      1.17435877	     -2.58856406	     -0.30883648	    -29.24369954	   -100.91367662	     -0.24493788	      1.52624582	     35.35523030	     77.60396396	      0.00681042	     -0.00457872	     -0.22941746	     -0.07505510	     -0.00741929	      0.03226535	      0.16003477	     -0.16689679
      0.77000000	   -183.66001684	    121.22386958	   -110.22804977	    -42.90081194	   1127.28848342	     13.24193606	     -2.67250605	      1.13986973	     -0.35078312	    -65.85614203	    156.64610391	   -115.75171225	     13.11411874	    -46.11589450	     12.64540854	     17.14188105	     -0.03035187	     79.23826027	     -0.02294095	      4.01777368	     10.82647356	      3.90359514	      4.04602348	    -11.33977985	     -1.99055468	    -30.09109891	    -83.23576979	      3.90556306	      3.09124297	     36.00402695	     86.07661954	      0.16404252	     -0.10377010	     -0.07727637	     -0.00716005	      0.70976984	      0.22866150	      0.09885101	     -0.62440790
      0.78000000	   -191.07045768	    132.58062632	   -137.95789918	     32.85497094	   1105.79839446	    -90.16296156	      2.31775410	     -1.27179494	     -0.38686792	    -56.16495888	    173.78357432	   -117.46157381	     -2.38511099	    -20.96387019	    -21.43351929	     12.63677458	     -0.05222159	     64.22083815	     -0.04381524	    -14.64018762	    -25.20411507	     -8.07270074	    -12.30706143	     16.16723436	      2.80139123	    -28.92944239	    -70.43731078	     -5.25671019	     -3.30019602	     34.71818088	     91.87399142	     -0.29970396	      0.17042827	     -0.12670602	     -0.11677033	     -1.12120332	     -0.58105132	      0.09291521	      0.79933336
      0.79000000	   -180.19978068	     80.00164085	   -117.04164498	   -124.08583611	   1030.38654933	     20.19226201	      4.72240662	     -3.05595379	     -0.59676472	    -64.05335771	    175.24494454	   -117.84693725	     35.22708743	    -27.75575749	     26.19606183	     12.12354019	     -0.02606744	     66.36252018	     -0.02382004	      6.67258817	     19.31238899	      6.91674468	      9.96468158	    -16.79451668	     -3.03116578	    -28.97916215	    -68.31808344	      4.69222220	      5.30536062	     34.13349726	     96.70049755	      0.27882700	     -0.15957409	     -0.07742638	      0.01737690	      1.01448102	      0.54726726	      0.19081190	     -0.98880220
      0.80000000	   -173.89331333	    177.35773933	   -109.99409199	    -31.64130919	   1051.03720344	     28.78402757	     11.54256669	     -4.43317111	     -1.25451596	    -63.72453061	    173.17322505	   -114.47628283	    -52.47488648	    -14.32372810	    -18.35150146	      7.31790832	     -0.03732677	     69.36002791	     -0.03625229	     -6.98009691	     -9.90431182	     -3.36323367	     -5.48961968	      4.99030774	      1.10617029	    -27.95565701	    -67.59707897	     -1.25339891	     -1.54302672	     34.00972588	    100.44830641	     -0.12511810	      0.07047696	     -0.11135125	     -0.05100183	     -0.40360728	     -0.28292020	      0.00390938	      0.35663766
      0.81000000	   -187.14965006	     -9.96442907	   -158.98942602	    -25.96049977	   1055.59754867	   -179.02622342	     12.79873839	      0.65487498	     -1.97601524	    -66.61343371	    164.26959558	   -109.82371188	    101.59116966	    -45.72897068	     30.53116356	      8.93277454	     -0.03547134	     74.46252877	     -0.03009334	     -0.16695471	     -0.37233254	      0.85478059	     -4.29211309	     -2.77603693	     -1.06071880	    -28.38946599	    -69.53705598	      0.47511809	      1.02244832	     33.95577451	    102.88396137	      0.04855985	     -0.05257275	     -0.10309030	     -0.04341116	      0.16079927	      0.11751958	      0.04291355	     -0.30746464
      0.82000000	   -163.73240175	    249.65074021	    -86.46073375	    -87.57413129	   1028.88861235	    161.28979265	     15.26062675	     -8.35940171	     -1.32223034	    -70.67542279	    163.38979561	   -106.86505931	   -116.74752134	    -18.95392440	    -31.44125608	      5.30060927	     -0.02916385	     83.48107956	     -0.03019619	     -3.61740754	     -0.90443868	     -0.83400844	      3.73233250	     -1.66405997	      0.37161131	    -27.85679602	    -73.48994179	      1.76139690	      1.17469273	     33.32769107	    104.79718564	     -0.02531504	      0.03965614	     -0.09927207	     -0.02401662	      0.08818044	     -0.20426187	      0.17118354	      0.02985995
      0.83000000	   -171.30545541	     11.72352532	   -146.56829338	      9.56304678	   1057.00010561	   -198.24912421	     13.63969987	      1.13599900	     -1.87661838	    -71.90302005	    148.55726966	   -101.93034827	     86.54211810	    -47.09710332	     27.28032519	      7.25927120	     -0.03775162	     88.40547210	     -0.03319437	     -3.38683432	     -5.76516446	     -1.01341489	     -6.88957732	      2.32236205	      0.18361626	    -26.92889760	    -76.23687888	     -1.20941875	      0.30698612	     32.23300477	    105.12852387	     -0.02715494	      0.03803838	     -0.11141452	     -0.03294119	     -0.17169559	      0.01651401	      0.14842431	     -0.03121303
      0.84000000	    -99.33143451	    182.52819778	    -44.14054740	   -166.51674216	   1033.11551773	    113.37179683	     14.88502839	     -0.04662200	     -2.24474163	    -73.07079187	    142.79689021	    -97.97891943	    -66.14007031	      0.94300254	    -13.79169094	      8.23828468	     -0.02087799	     94.34777302	     -0.02036628	      5.81108806	     11.16401788	      3.31223274	      7.09110054	    -12.63076934	     -2.77811466	    -27.30473281	    -78.12291465	      5.24107063	      1.49378757	     32.11023778	    106.39896430	      0.12400595	     -0.20088161	     -0.07588965	     -0.01930296	      0.74727021	      0.06628385	     -0.28620632	     -0.50371161
      0.85000000	   -198.82018932	     46.46510789	   -171.82822954	    110.14454710	   1045.51886282	   -226.59951771	     12.05248246	      1.91644481	     -2.14259929	    -73.92530353	    136.12717087	    -94.64925813	     62.57585745	    -77.42996597	     13.42712526	      6.28283129	     -0.04474950	     96.44260431	     -0.04254504	    -13.67392368	    -20.00486726	     -5.91624644	     -8.08750241	     14.59293345	      3.87836229	    -25.74549393	    -77.90288193	     -5.93225550	      1.35217754	     30.88577015	    107.53564032	     -0.22583326	      0.33225876	     -0.13191746	     -0.01478872	     -1.04155672	     -0.24839794	      0.81509179	      0.47440361
      0.86000000	    -90.35580056	    154.49981405	    -41.51430225	   -159.25863311	   1023.88639628	     74.20433896	     11.76687174	      2.32534271	     -2.08870349	    -71.95160425	    130.06574616	    -90.40671442	    -48.42227699	     -6.00624218	     -9.48873171	     10.59583312	     -0.01701905	     98.69359259	     -0.01546311	      6.91059961	     12.58816988	      4.37193362	      3.56614326	    -16.87471154	     -6.03669360	    -26.64019017	    -77.79481265	      6.05236000	     -2.23326588	     30.69141129	    108.92139084	      0.18896611	     -0.56723619	     -0.06237907	     -0.08103002	      0.94449985	      0.15598485	     -1.23125936	     -0.64945238
      0.87000000	   -150.36631289	     84.81013368	   -119.86421736	     70.12514480	   1058.03908767	   -239.62337647	      8.14978301	      8.62655965	     -2.61164874	    -90.24377523	    117.08656933	    -87.25431749	     32.30870891	    -61.25968588	      7.64761643	      9.98670876	     -0.03713033	    108.14794788	     -0.03451316	     -9.09663233	    -19.78662118	     -7.93089666	    -20.18786420	     34.63432534	     17.65678341	    -25.84843554	    -82.21201950	     -1.66434351	      9.48152463	     30.20640927	    110.52930722	     -0.34677457	      1.91500039	     -0.11434846	      0.23419328	     -0.69239885	     -0.93454446	      4.15277008	      1.67707627
      0.88000000	    -85.63787341	    142.62242351	    -41.83174214	   -176.33351231	   1017.29178657	    138.28796471	      6.25628544	      7.92144800	     -2.62657943	    -52.90041412	    123.94562306	    -81.92574146	    -36.17172772	    -18.04675355	     -5.68588623	     11.82016318	     -0.01723265	     96.71182183	     -0.02251628	      8.43185760	     18.07731745	      7.94057854	     19.27755183	    -44.45985243	    -21.74914452	    -25.65903612	    -75.10342144	      5.19343173	     -9.67735354	     29.31181315	    110.89160950	      0.37383131	     -2.10445388	     -0.07399510	     -0.34157643	      1.08254962	      0.75056364	     -4.54565461	     -2.11126125
      0.89000000	   -132.82734480	     93.12711705	   -105.27896989	     54.37345373	   1008.84998077	   -196.00904863	      7.78593100	     11.49222236	     -2.61272500	    -82.87192875	    107.10487379	    -79.95816455	     15.84275613	    -58.68305406	     -3.29614350	     12.62132317	     -0.03357701	    109.78174782	     -0.03028642	    -13.40715914	    -16.02510278	     -5.91779206	     -5.79101055	     19.61590862	      9.19612350	    -25.03890552	    -80.46777688	     -5.72455882	      5.45180829	     28.71339904	    113.00328232	     -0.29637885	      0.85960748	     -0.09661104	      0.10374307	     -1.12266448	     -0.26635735	      1.97516243	      0.88187904
      0.90000000	    -81.51851962	    122.27576943	    -41.28076329	   -114.12065650	   1013.91275145	     37.95587200	      2.07449241	      8.69497137	     -2.12957314	    -59.45608555	    107.27882550	    -74.43887013	    -14.51114452	    -23.92736612	      1.99649161	     12.56412469	     -0.02185115	    103.56155467	     -0.02597343	      3.44194552	      6.90273178	      4.08279814	     -2.46106199	    -15.42143489	     -9.40326301	    -24.40630216	    -77.69695169	      7.04475169	     -4.86904147	     27.65682571	    113.51296215	      0.29808378	     -0.92230950	     -0.08655763	     -0.10743921	      1.26866960	     -0.00103311	     -1.84913747	     -0.93169490
      0.91000000	   -114.72373932	    104.95939230	    -81.33020865	     73.36907913	    939.10934567	   -227.77374306	      5.54783522	     11.87255956	     -2.19476869	    -87.20944643	     92.00346490	    -73.05327952	     -0.30508202	    -49.58271088	     -7.33976460	     13.94032708	     -0.02953062	    114.72621172	     -0.02555063	     -3.65134190	    -23.06855500	    -14.69907849	    -27.56828439	     42.94538490	     30.38329942	    -23.92468111	    -81.69007503	    -14.84785170	      6.37265808	     26.96252761	    115.74741976	     -1.10147448	      3.03386561	     -0.09215202	      0.29469886	     -3.59955594	     -0.58744794	      4.96957483	      3.95621474
      0.92000000	    -92.09028582	    134.00139959	    -52.63921650	   -118.02075520	   1065.04209750	    124.33219153	      3.60181426	     14.43015614	     -2.75383058	    -60.53960429	    101.10262522	    -69.59559558	    -16.11593159	    -51.27355273	     -0.35482337	     12.95671639	     -0.02233555	    105.82530522	     -0.02633745	     -3.05085661	     20.91328043	     13.47202875	     28.62818605	    -47.61017801	    -31.84154949	    -23.34845741	    -75.77071673	     16.59333192	     -4.60000291	     26.27540748	    116.31178107	      1.07102714	     -2.91219680	     -0.09140871	     -0.18322460	      3.77791875	      0.36951674	     -4.67417470	     -4.09871472
      0.93000000	    -64.80432777	     54.62577505	    -49.93884483	   -111.77250118	   1022.04350311	   -156.10412981	      1.94944620	     14.60016865	     -2.60689227	    -54.58037224	     97.80510083	    -66.42446263	     29.38999197	    -29.83570660	      8.11462423	     12.91843686	     -0.02555998	    106.52089276	     -0.03251786	      3.31033974	     -9.37741231	     -2.74310232	      2.13774911	      7.83560493	      4.46123368	    -23.39251024	    -74.58992628	      0.76963442	      5.65814618	     25.98562105	    117.94664914	     -0.12714044	      0.41164966	     -0.13823860	     -0.22835817	     -0.19284990	     -0.33336218	      1.23514244	      0.20842102
      0.94000000	    -85.29547981	    209.35162055	    -23.14011876	     23.29359319	    956.93654334	     36.72261337	      6.44541822	      9.72222249	     -2.02133476	    -87.67255199	     78.59643781	    -65.49284027	    -80.83196020	    -29.86163703	    -38.14540748	     13.80519223	     -0.02833246	    116.71440555	     -0.01937242	     -8.62942108	     -7.06066937	     -7.94778244	    -20.56675793	     13.98947496	     12.74268490	    -22.86799068	    -80.87886955	     -9.51953084	     -1.89212841	     25.11759045	    120.79761655	     -0.70659640	      1.17855079	     -0.09268879	      0.34506357	     -2.26563112	     -0.20251427	      1.42809862	      2.08958819
      0.95000000	   -116.09179047	     13.61423199	   -100.46168439	    -89.49693490	   1121.19783405	    -70.31546821	     11.05116645	      2.06337380	     -2.77962819	    -36.74183207	    100.85451418	    -62.83462422	     58.74098702	    -68.02218670	     34.14683927	      2.85743079	     -0.03339894	    101.16962004	     -0.04047945	      7.60677811	      5.81794648	      8.25099147	     12.37004756	    -20.51274611	    -16.20586171	    -18.49626764	    -69.05751217	     15.73621865	     -0.15829906	     22.93885379	    119.80925222	      0.81875764	     -1.43102458	     -0.40552055	     -0.56777083	      3.15703006	     -0.21350136	     -2.00052400	     -2.28414743
      0.96000000	    -32.11528234	    170.22243835	     10.46095638	    -79.93204202	    906.94952637	    -67.59430881	      2.85006848	      9.14453137	     -1.84041029	   -103.73583484	     65.07105893	    -61.49288663	    -36.69778246	      1.78154829	    -26.10469935	     13.63250294	     -0.02504058	    127.28569829	     -0.01676607	    -15.48976015	     -6.02171424	     -4.83442277	     -4.48592095	     10.06424665	      6.50051739	    -21.18419952	    -82.35211059	    -11.26421593	      0.71885058	     22.99071673	    124.45610151	     -0.46200199	      0.52236396	     -0.21588269	      0.61235314	     -2.06746240	      0.38097553	      0.76111136	      0.95019973
      0.97000000	   -148.72699420	     77.20777454	   -106.70503690	    -19.00831282	   1213.73844225	     39.46367866	     29.20272939	    -24.11682337	     -2.57356957	    -48.61659575	     87.90943921	    -58.86126028	      3.86759881	    -70.47693224	     10.65906600	    -13.93915249	     -0.04549124	    106.20260013	     -0.04000183	      6.69348653	      0.24116881	      0.95532031	     -4.40200019	     -4.58876019	     -1.94225404	    -11.03432398	    -69.67231630	      6.03919700	      1.60791523	     19.49345610	    124.39406839	      0.13187405	     -0.11522940	     -0.99330626	     -0.37855372	      0.84747612	     -0.33436965	      0.09826157	     -0.40770332
      0.98000000	    -56.47282169	    116.20274960	    -22.22525581	    -40.33146431	   1094.60190240	   -101.26154793	     -7.38170451	     23.23544960	     -1.30250225	    -64.92067156	     82.50828048	    -60.24012571	      3.75568513	    -28.48268757	     -0.32003776	     19.71908814	     -0.03519235	    113.40050419	     -0.03258710	     -4.14512204	     -6.16452459	     -3.19663232	     -0.35267397	      1.24828094	      2.21259729	    -17.41491735	    -71.47084467	     -1.55030839	      2.24462634	     19.70964248	    130.57001537	     -0.22212902	      0.22873709	     -0.47698663	     -0.06193425	     -0.52306762	     -0.27128738	      0.50671278	      0.20145599
      0.99000000	    -33.22911172	    159.26950742	     10.77283910	     34.29328675	   1002.00570753	    -76.53737942	    -26.40853101	     49.13633567	     -0.64337241	    -75.52953260	     71.22242035	    -56.72621140	    -12.41563023	    -35.87861183	     -5.32481373	     36.80549009	     -0.02365086	    117.51630185	     -0.02860146	     -2.54711170	      2.91253764	      2.53735049	     -3.15305136	      0.59569215	     -0.67481006	    -22.23213313	    -73.12351664	      3.46887487	      0.13130927	     19.01052203	    128.95017802	      0.22017522	     -0.10911380	     -0.01577231	      0.12546635	      0.76902363	      0.08730877	     -0.07362756	     -0.07143021
      1.00000000	    -50.44604877	    100.70988961	    -11.31551363	     39.78524554	   1043.88402122	    -35.29943765	     -4.30223588	     51.35327823	      0.98782502	    -49.70904226	     81.30302084	    -55.14147034	      5.93495359	    -39.91480298	      7.64515739	     41.22366767	     -0.05414629	    104.05268737	     -0.03515232	      3.41596953	     -8.63564425	     -3.95272720	     -5.32476283	     -5.14413204	     -1.03832537	    -18.43445510	    -66.17775327	      0.80720697	     -2.08409022	     17.06248463	    129.20654166	     -0.23272265	     -0.02738563	     -0.39482212	     -0.29058494	     -0.35736202	     -0.56950654	     -0.36933794	      0.09756458
      1.01000000	     29.91395024	    136.33109485	     56.64266540	    -18.74350873	   1080.70288165	   -102.00124999	    -17.35421920	     48.76442033	      1.97989835	    -75.01268228	     66.63586605	    -51.90361965	     -3.24680921	    -13.42766785	     -9.87420779	     54.54019281	     -0.02767762	    119.06007070	     -0.04865106	     -4.95343660	      5.07143256	      2.18656451	     -2.19172987	      4.50131174	      1.46464352	    -22.10347284	    -69.28563927	      0.76844201	      2.51243705	     15.36907176	    132.16385375	      0.11794467	      0.06950786	     -0.09486156	      0.00927701	      0.32694329	      0.29122431	      0.43359649	      0.03048278
      1.02000000	      4.71741251	     64.92238900	      4.22461521	     12.36635571	   1156.70929047	   -192.56235550	    -10.59573938	     50.08151062	      0.21464630	    -56.53303821	     71.55067616	    -48.34554917	     28.12167471	    -53.12464590	      3.90896016	     32.47567141	     -0.00574059	    110.66977206	     -0.04839990	     -4.36682945	     -8.89870839	     -2.32893111	      2.37849148	     -2.54438758	     -1.18767063	    -23.00837198	    -64.75011064	      0.56069321	      1.87950402	     13.28130568	    133.21074440	     -0.09838590	     -0.05537519	      0.16581745	     -0.22471416	     -0.09711391	     -0.30270496	     -0.02317120	     -0.18816041
      1.03000000	      6.44305929	    200.26209547	     66.02860654	     -1.60447309	   1072.89140526	     48.58337521	    -27.61602597	     72.16284879	     -0.55597674	    -62.13635370	     78.27968162	    -50.70359228	    -41.73633650	     -9.75752997	     -7.62843826	     38.37683680	     -0.03124637	    107.10547301	     -0.02999904	     14.44590328	      7.23906960	      1.57440829	    -12.17397245	     -3.48935287	     -0.05519016	    -14.89396712	    -63.61187650	      7.92750603	     -2.92637440	      9.68477371	    134.65413818	      0.07084458	     -0.01514755	     -0.48404729	     -0.13277434	      0.96599657	     -0.38529927	     -0.25488489	      0.25558584
      1.04000000	    -24.19930357	    -88.50136706	    -69.64459495	     42.01167911	    623.90356038	   -359.95298466	     47.42775248	     48.10984802	      4.18010385	    -84.97374578	     67.19521909	    -52.51836075	     98.78447559	    -60.92101896	     18.97518649	     26.41297247	     -0.01625183	    121.58755898	     -0.03443886	    -34.03194666	    -16.15745999	     -1.88612079	     14.70740032	     10.94212787	     -0.31457940	    -46.98144294	    -66.06090224	    -12.05381173	      3.25346333	     15.78259765	    145.76746980	      0.02876747	     -0.16645682	      2.43547667	      0.21099941	     -1.27926228	      0.76449763	     -0.13800799	     -0.20033606
      1.05000000	    -37.65950900	    360.53149233	     86.71984755	     69.28193901	   1485.35370580	    297.37116846	    -59.82890155	     79.68777459	     -4.75000188	    -46.21106878	     96.87791732	    -55.34708944	   -123.55620069	     -8.25739829	    -16.71932912	     30.03421364	     -0.04843134	     93.10257432	     -0.02625839	     33.62185509	     10.94537805	      0.27803867	    -28.58944918	    -18.22817192	     -1.13524647	     11.20566864	    -55.89075876	     15.53555023	     -4.62892849	      0.89976079	    147.00483354	     -0.08648509	      0.09435787	     -2.52452362	     -0.32734382	      1.52247456	     -1.19267108	     -0.07561645	      0.19039820
      1.06000000	    -22.51564678	    -37.15870770	    -43.36461808	    -55.45088713	    683.44578680	   -190.79941141	     54.32455609	     44.02127459	      3.64310061	    -81.65787167	     76.17298033	    -52.00522503	     57.70647690	    -46.72526036	      7.22179963	     19.81292843	     -0.01760953	    114.02190954	     -0.03321896	    -17.60054164	     -8.32455845	     -0.64320724	     13.20562944	     10.09232411	      1.46326453	    -42.69215284	    -59.07432671	     -4.23427842	      5.83261051	     13.06505916	    151.63933775	      0.05391888	      0.01934381	      2.15978969	      0.13582906	     -0.32657981	      0.27181564	      0.54674358	     -0.20614337
      1.07000000	    -31.51857628	    152.92194571	     10.05532977	     73.99250250	   1131.80505542	    -53.35989121	    -12.66054629	     79.78106890	     -1.15902045	    -72.95128024	     90.41579813	    -56.29254033	     -7.28913080	    -34.97229822	      5.90294023	     29.97188090	     -0.03559011	    105.61506207	     -0.02979402	      3.22696904	      1.53151632	      0.25783019	     -9.02236468	     -2.35503628	     -0.16571951	    -11.57389092	    -56.69086215	      2.07140662	     -3.30906070	      4.82015525	    161.36305189	      0.00369733	     -0.04020527	     -0.46648417	     -0.09085639	      0.18238606	     -0.07055360	     -0.45830396	      0.31813117
      1.08000000	    -33.57253088	    128.61475922	      3.18892753	     33.96713910	   1046.73421827	     -2.33894705	      3.30082967	     63.95374540	     -0.26355272	    -73.03530778	     87.57812608	    -54.16950888	     -4.70843939	    -38.42199683	      6.36044841	     25.28221048	     -0.02775430	    109.67791247	     -0.03854672	      1.09666894	     -6.63139239	     -1.72904548	     -6.01050404	     -4.57324822	     -1.12551849	    -18.78239656	    -56.35487790	      2.60584190	      2.23560562	      6.29674704	    163.65062186	     -0.05895020	     -0.02760655	      0.16419347	     -0.02121514	      0.16512026	     -0.42933890	      0.29142009	     -0.31838161
      1.09000000	    -32.95729403	     62.08465460	    -28.90109368	     41.49612245	    964.27606177	   -187.82583032	     -0.96902604	     73.26967752	     -0.37848138	    -70.15774890	     90.48198960	    -54.34376239	     46.12136984	    -28.53689358	     14.05834169	     27.67208593	     -0.04670605	    100.25215253	     -0.02665235	     -7.14619482	      9.20291299	      4.89508437	      9.40214736	     12.22459878	      3.00347313	    -16.23887932	    -52.29153798	     -0.55635782	     -1.16063088	      5.74863489	    166.25636275	      0.36412166	      0.02669840	      0.04686397	     -0.04608535	      0.53091802	      0.76702696	     -0.32697762	      0.61765153
      1.10000000	    -65.19739210	    274.31107755	     22.39165237	     78.38048543	   1274.77107709	    175.09044432	     -5.04295129	     62.66193184	     -1.25216447	    -89.36660661	     83.97914309	    -49.32863316	   -100.68864374	    -75.98908444	    -23.87689536	     24.54656881	     -0.01264996	    115.46492205	     -0.04401524	      3.70580272	    -23.56668210	    -13.19973696	    -16.26830504	    -20.00792169	     -6.30812541	    -13.65367308	    -56.18437317	     -4.16387435	      9.46480553	      4.56506260	    171.18053249	     -1.04715734	     -0.09623374	     -0.23649859	      0.09284898	     -2.30852976	     -1.36830032	      1.29548096	     -1.75335424
      1.11000000	    -29.10450187	     -7.30033398	    -38.31551117	     14.31637297	    961.67276472	   -266.12479832	      0.51264950	     57.51819882	     -0.69894302	    -63.89603747	     96.60205538	    -50.31532895	     94.73965563	    -12.32987097	     43.42179548	     24.33098736	     -0.04750998	     99.35953612	     -0.03134025	      3.52463061	      7.60567595	      8.43572047	    -19.37313634	      8.39001443	      5.83586024	    -17.62013997	    -51.03857935	     11.67726365	    -19.23366581	      5.40270550	    175.35300592	      0.86913076	      0.03531719	      0.19511041	     -0.16655855	      2.78489029	      0.16054012	     -2.37043225	      2.59403714
      1.12000000	    -51.43004284	    207.98029385	     -7.24159277	    -26.91180705	   1187.38233437	     96.02255825	      2.04475241	     43.95579813	     -1.14949262	    -78.50601420	     85.15503045	    -44.82286589	    -57.99167559	    -46.42553368	    -29.75226783	     18.97421420	     -0.04047736	    112.04683045	     -0.04316832	     -9.60922080	      6.12693317	     -0.09031952	     26.99483601	     -0.78787923	     -2.58191142	    -15.18542409	    -54.44654268	     -4.57564007	     15.48920953	      4.76463690	    177.81591060	     -0.12817563	     -0.00723959	     -0.02763988	      0.01461605	     -0.71401916	      0.43879728	      1.65603371	     -1.57946793
      1.13000000	    -38.50748909	     55.07938388	    -18.72380271	     11.44421545	   1141.46016060	   -189.51967250	    -10.21023064	     41.86772364	     -1.71723802	    -68.57792837	     89.85974735	    -42.07074855	     59.14418331	    -25.38285590	     44.97226723	     21.75936986	     -0.03662436	    106.54742327	     -0.04105981	     10.03079290	    -12.03114928	     -1.72689450	    -33.65687667	     -3.94616087	      0.81346440	    -14.43245708	    -53.81689153	      6.28991654	    -10.99380102	      4.31602837	    181.27835394	      0.02001407	     -0.04495990	     -0.11787437	     -0.12120664	      0.61661517	     -0.71046905	     -1.22224068	      1.05349100
      1.14000000	   -103.43786590	    239.71448011	    -49.23005751	    -22.06729315	   1149.69330835	     74.19114539	     15.99821190	     17.93886142	     -0.77891684	   -110.48553097	     79.94990766	    -47.17336852	    -84.77673337	    -71.37366874	    -55.09204766	     12.33526209	     -0.04134885	    133.00014407	     -0.03515221	    -16.98246583	      6.45845245	     -0.24069267	     31.93819621	      6.22237953	     -0.43064419	    -21.02341415	    -62.80015633	     -5.26692948	     15.87428348	      5.94591638	    203.47453011	     -0.13539914	      0.03713613	      0.46152134	      0.59346609	     -0.68287962	      0.42349994	      1.76592739	     -1.33188293
      1.15000000	    -98.37696064	     75.50090435	    -68.85001387	    -61.06589957	   1394.37693949	    -73.51497781	     -1.88668908	     16.65843737	     -1.21192304	    -50.39804884	    156.11095692	    -65.58650017	     41.31114668	    -22.51922908	     36.39375253	     13.41323598	     -0.03660676	    124.33499094	     -0.05240781	     10.33388129	    -12.15816233	     -4.17055846	    -25.67629719	     -9.66420713	     -4.46807554	    -14.81133914	    -48.87193167	      1.81897853	     -9.24003302	      2.81517421	    262.47869927	     -0.29553125	     -0.31785841	      0.37368291	     -0.49156083	     -0.43192133	     -0.61400753	     -1.52089219	      0.21476731
      1.16000000	    -99.21955564	    173.04691668	    -61.23568793	    -40.76308723	   1381.40207981	    -98.36845235	     -3.83702335	     28.88890361	     -2.02629686	    -93.52998535	    133.14720661	    -64.04779548	    -15.58669404	    -46.49147308	    -12.48071202	     22.58969524	     -0.03811585	    145.43319046	     -0.04387903	     -4.40790217	      2.31705947	      1.82245836	      1.72045296	      2.73172602	      3.33103382	    -22.75704495	    -59.72398316	      4.38605544	      0.92420771	      9.34044104	    264.97855712	      0.21628599	      0.20051190	      0.15286748	      0.22468752	      0.94207123	     -0.12174392	      0.29909598	      0.49277341
      1.17000000	   -116.43621840	    155.51091836	    -77.33104780	    -10.51065488	   1480.27501626	    -31.53163485	    -14.38692430	     15.48176692	     -2.33565037	    -62.98382156	    145.64791058	    -63.60962198	     -0.63286314	    -41.16305428	      6.34614962	     14.82359008	     -0.03822219	    136.81998514	     -0.05046837	     -0.02778719	     -1.69737568	      0.25191919	     -9.28147988	     -2.00645915	     -0.10689425	    -11.09121526	    -54.51587756	      1.29833066	     -1.16071175	      2.30850166	    271.85527192	      0.04912353	     -0.01865633	     -0.12827972	     -0.05515887	      0.15150801	     -0.00307597	     -0.15202262	      0.14394540
      1.18000000	   -106.07155492	    147.19631907	    -72.86092936	     -9.38645597	   1501.54791322	    -24.45045225	    -11.33678685	     16.87581632	     -2.75314458	    -47.70856927	    138.90258669	    -63.96130871	     -8.37797758	    -42.06186467	     -2.33100733	     13.32369134	     -0.03832498	    133.18392316	     -0.05041791	     -2.51944016	     -0.49950222	      0.11484834	     -0.50035784	     -1.83488070	     -0.26846741	    -11.11072111	    -54.65304999	      1.51373317	      1.47907302	      5.93434608	    269.99230420	      0.03296775	     -0.00038621	     -0.32988739	      0.04286178	      0.23400034	     -0.07776117	      0.10802016	     -0.06974819
      1.19000000	   -102.36226833	    116.47460031	    -75.58506346	     18.12908643	   1509.21891828	      6.78884701	     -6.87801863	     20.60346375	     -2.34215675	    -21.91610163	    144.71503247	    -63.15892914	     -8.66478093	    -46.46915652	     -0.98948915	     15.46341810	     -0.03361263	    128.54719962	     -0.05249059	     -3.06287816	     -3.72365222	     -0.93377995	     -7.61330574	     -0.10314783	     -0.12473811	    -14.42561222	    -49.30596658	      0.37937828	     -1.39515626	      7.15303201	    275.11387869	     -0.04641137	     -0.05007661	     -0.05171029	     -0.07906285	     -0.05852770	     -0.11899886	     -0.23536211	      0.15477225
      1.20000000	   -123.16792017	    122.56510687	    -93.68483758	     26.20611320	   1636.69987371	     30.03512266	     -6.04561584	      5.13387598	     -4.12762631	    -15.77845817	    139.47945204	    -62.79051086	     -4.57364864	    -53.01628791	      3.53429776	      2.48413170	     -0.03956586	    131.01254475	     -0.05142754	      4.28540127	      1.94822343	      1.09646571	     -0.06807075	     -3.54380031	      1.02130485	     -4.92997345	    -48.57890463	      5.46633634	      3.55639443	      5.09787892	    274.30900636	      0.12260010	      0.15916195	     -0.85318067	     -0.01480398	      0.85389910	     -0.28824930	      0.58481355	     -0.05441873
      1.21000000	    -50.89081338	     63.43728294	    -46.08231441	     44.81606059	   1337.56377649	     44.18895012	     -3.58976552	     36.52849766	     -0.88659054	     18.46834102	    144.34893697	    -59.98600527	     -7.91621514	    -27.77239467	     -6.52338476	     26.01070073	     -0.01988603	    118.87846432	     -0.05291429	    -12.55920071	     -7.96224412	     -2.51829810	     -9.68282387	      4.47185777	     -0.06226960	    -24.25092296	    -42.54992558	     -5.34459885	     -3.91620852	     10.23813435	    264.00964189	     -0.17833845	     -0.14604226	      0.80837729	     -0.26812074	     -0.95391277	      0.13592923	     -0.63306793	      0.33070116
      1.22000000	    -76.34294748	     92.38230701	    -58.29091147	      4.44385059	   1494.33076985	    177.39581703	     -7.82562371	     27.54949657	     -2.72748023	     42.83620683	    140.39174401	    -58.01541287	    -35.67923403	    -49.40908723	     -8.14841290	     16.15223362	     -0.01780867	    102.83602630	     -0.04795006	      6.81811481	      5.40345822	      1.46971373	      3.78680136	    -11.79449510	     -4.94895390	    -13.16803244	    -29.94314506	      5.10074838	      1.29333443	      8.11601630	    244.93680465	      0.08115143	     -0.22659947	     -0.17851024	     -0.25201970	      0.72815435	     -0.13514116	     -0.32057836	     -0.63297525
      1.23000000	   -137.27303019	     18.33226079	   -122.23033261	     91.84809778	   1512.35589794	     46.75034530	      9.66509114	    -14.34977443	     -4.90441108	     52.94984995	    128.18102369	    -56.82193838	     13.48593321	    -45.21334562	     12.57900587	    -11.43918741	     -0.05297935	     76.81677861	     -0.04601038	     -0.85743719	     -4.54972004	     -0.80968209	    -10.92728589	      6.91631452	      7.16224863	     -1.39343968	     -8.11980346	      4.20576718	      4.24447001	      5.38044333	    205.79439196	      0.04515868	      0.53985422	     -1.13959674	     -0.11421824	      0.62367745	     -0.55522085	      1.41395610	      0.60188788
      1.24000000	     -9.22521405	     36.42573644	     -9.39128108	    116.77134227	    912.63208220	    146.21463614	    -21.90735803	     83.72449122	      1.18500197	     76.63103720	    120.68869351	    -48.99841483	    -43.94554118	    -53.88022720	    -17.15665790	     55.32178006	      0.01219905	     53.77285761	     -0.03529502	     -9.05508087	      2.55054917	      0.33249748	      1.92532777	     -9.98993743	     -8.56338210	    -36.12610386	     13.23363033	     -5.82174133	     -7.82251351	     14.37368880	    170.07622398	     -0.06825185	     -0.69213818	      1.84004152	     -0.12314631	     -0.87741117	      0.69782211	     -2.11631241	     -0.35661004
      1.25000000	   -243.78300841	    -76.85892016	   -229.03271927	    107.34989316	   1546.00065031	    -46.36224435	     38.29496060	    -62.78347818	     -7.32491016	     81.44117974	    120.86276666	    -55.70467338	     69.38946842	    -72.96594318	     32.34270652	    -47.70449051	     -0.10076607	     26.33216243	     -0.04753788	      0.96776261	    -17.32563283	     -3.87214800	      3.28556621	     14.81964188	     10.51640075	     13.94327769	     33.80985419	      5.51693525	     16.83289092	      2.38237933	    134.11328995	     -0.07483860	      0.87484381	     -2.37449826	     -0.12460254	      0.57590228	     -1.26168701	      3.42224741	     -0.08779404
      1.26000000	    101.32122642	    109.01435590	    122.63984492	    -41.40403690	    681.40625774	    334.32504117	    -45.29951041	    103.73794720	      2.02257396	    100.77997177	    105.32360868	    -43.27203659	   -141.23178071	     13.95830618	    -38.13702440	     77.80580988	      0.04714302	     13.82086378	     -0.00409936	      0.10833636	     24.54736137	      5.81218991	    -20.00101084	    -28.27231397	    -14.48029067	    -44.55857685	     46.88636700	     -0.60311660	    -23.12161867	     16.62904756	    107.52047592	      0.21520766	     -1.09717449	      2.49185243	     -0.02483201	      0.24474902	      1.21711087	     -4.50816449	      0.21516800
      1.27000000	   -329.55908850	   -185.19666034	   -321.38631035	    216.02504140	   1514.40221433	   -144.90725255	     56.07793432	    -82.26824243	     -7.77758979	    119.54176476	    111.86089421	    -49.79162759	    132.21853854	   -122.98496888	     47.71596764	    -61.74683215	     -0.13351734	     -4.67986705	     -0.04926460	     -4.74547943	    -27.58364354	     -6.56359945	     16.88027019	     24.45682138	     13.13959950	     15.78548587	     62.72100974	      0.99908156	     25.52603201	      2.74825671	     91.74179841	     -0.24479859	      1.07516673	     -2.55829830	     -0.14763731	     -0.26051578	     -1.35862648	      4.74973489	     -0.50991123
      1.28000000	     89.43654743	    113.28421459	    118.07244536	    -20.06547885	    791.77888658	    353.32863185	    -39.34506328	     84.97077774	      0.68817487	    115.21047675	     91.79277224	    -33.64704610	   -146.66518512	     22.20768340	    -32.68952978	     65.61523172	      0.02397630	      5.72121049	      0.00468006	      0.74038539	     26.84895797	      6.72386241	    -22.33342841	    -30.07076812	    -13.91980687	    -37.47172386	     63.57433679	      1.66685994	    -23.91328433	     15.27602159	     77.80425582	      0.33306285	     -1.06374184	      1.90108390	     -0.01187703	      0.73558875	      1.11420451	     -4.55643895	      0.34646925
      1.29000000	   -223.41216366	   -154.53308542	   -221.70902054	    116.84924708	   1415.13231464	    -81.83653468	     46.55715511	    -64.18415307	     -6.25183179	    133.12688121	     93.18989696	    -31.29599358	     89.22594235	    -77.77527889	     26.91191570	    -44.60573521	     -0.11692244	     -1.29909625	     -0.03684938	     -5.69473566	    -24.90759692	     -6.41965807	     11.22120659	     22.28265763	     11.01517845	      6.36026137	     68.64137498	     -1.05281331	     19.66808938	      5.65374479	     67.43224291	     -0.30652081	      0.88525816	     -1.73054655	     -0.13938829	     -0.62847457	     -1.07926004	      3.80708480	     -0.26253992
      1.30000000	    -59.74247134	      3.56192378	    -36.54266681	     84.87643995	   1077.53101491	    160.09348127	    -13.90696363	     32.03042319	     -2.01755153	    129.52337444	     89.05058085	    -24.62615598	    -50.83697795	    -47.73657083	     -3.37842190	     26.44577071	     -0.02709091	      5.72209665	     -0.00863515	      1.08910067	     12.47883244	      2.96801041	    -10.49940760	    -13.91211659	     -4.87194470	    -20.22441192	     66.62506581	      2.07209921	     -5.80001782	     11.71058392	     58.73908443	      0.14904697	     -0.29600500	      0.50926999	     -0.05747901	      0.51633292	      0.37225934	     -1.16460007	     -0.11392372
      1.31000000	    -95.78995711	    -39.79002256	    -87.46900142	     19.33819774	   1227.48520699	    114.77368996	     18.95974453	    -18.43225761	     -4.15297849	    133.07524280	     84.98444550	    -21.79043565	    -14.84897961	    -30.81930794	     -9.30626110	     -8.71548261	     -0.07165567	      7.97230659	     -0.01430529	      2.88241673	     -4.45755543	     -0.65135607	     -2.17639193	     -0.32895627	     -0.00124392	     -8.16080568	     67.73443473	      3.33244747	     -1.76027155	      8.71665994	     52.55976858	      0.02369465	     -0.03219919	     -0.51599611	     -0.09682014	      0.38892980	     -0.40270185	     -0.30017646	      0.22717352
      1.32000000	    -83.29471891	   -131.08097250	    -87.16107679	    196.16495679	   1131.58917815	    -17.67796940	    -15.20572865	     36.51074303	     -1.68063175	    138.47763772	     80.76965463	    -13.32043087	     85.34801536	    -84.86625923	     48.90381891	     27.51256797	     -0.04491825	     18.96627660	     -0.02522323	    -31.18531550	     11.61540384	      1.40527595	     25.87261105	     -9.95855987	     -2.60856863	    -21.37765125	     62.84168928	    -14.53561650	     20.49555307	     12.15682119	     44.67068309	     -0.03643090	      0.12057295	      0.63201719	     -0.06275577	     -1.56020715	      1.43953749	      2.48236438	     -2.14435809
      1.33000000	    -98.14559433	     69.52707703	    -67.11674265	   -217.42613826	   1472.07875154	    242.19640099	     55.17135213	    -90.44612639	     -8.24948115	    137.97581262	     88.07766471	    -15.23320907	   -145.31216789	     39.85562463	    -69.20663348	    -56.79063548	     -0.08869083	     10.04529339	     -0.00751703	     42.86570310	    -14.61668318	      0.93805338	    -53.70952903	      2.67495594	     -2.93734972	     11.77881841	     61.83038767	     26.56524762	    -46.07487954	      3.78325882	     34.99091706	      0.43605121	     -0.86453395	     -2.24819172	     -0.12988389	      3.44642627	     -2.10694277	     -6.73092623	      3.84934554
      1.34000000	     16.63758931	   -143.13348385	      2.69121749	    274.65157673	    890.39095308	    -88.00881579	    -49.37694074	    109.10105929	      2.05885446	    135.63291487	     65.31796770	      3.78466997	     95.70424686	   -108.51853135	     70.55639868	     77.96714007	      0.00478687	     27.03355277	     -0.02124919	    -44.41147965	      3.90481265	     -4.03924245	     38.89841518	     -0.80288916	      4.84215148	    -44.54467340	     54.72285223	    -24.88318383	     44.51686706	     17.17102865	     25.34167348	     -0.61606708	      1.01038947	      2.57753830	     -0.02807143	     -3.61663965	      1.55902738	      6.95108440	     -3.42529689
      1.35000000	   -184.10202414	     23.00852693	   -181.12250377	   -175.88051800	   1654.40251756	    199.91269790	     54.84560856	   -116.72787428	    -10.60090862	    141.95019027	     87.41366865	     -6.63133422	    -76.55254566	     -0.31900343	    -76.33653618	    -78.14505276	     -0.11828944	     19.57748392	     -0.02132533	     36.73989922	      0.07584686	      5.18883688	    -25.31083107	     -7.44739836	     -5.75662550	     26.60438988	     51.34251067	     24.95690465	    -27.65907820	     -0.69746715	     16.20277414	      0.70864637	     -0.79009599	     -3.46601795	     -0.14329229	      3.85422143	     -1.38610948	     -4.64358591	      1.82099817
      1.36000000	    113.66561206	   -151.99852887	     94.00796721	    220.45996820	    734.39296331	    -75.23684833	    -38.53085611	    121.93730248	      3.38382725	    130.12294617	     46.88191343	     21.58636979	     66.41465251	    -83.33050169	     72.00178444	     88.73311814	      0.04173742	     31.61672108	     -0.01498288	    -45.42570059	     -1.44050869	     -5.60666715	     21.84790708	      1.91255289	      4.14837201	    -56.70942295	     43.38941434	    -25.41610578	     27.35965338	     18.95454806	      5.34215326	     -0.72940680	      0.69723164	      3.61332542	      0.01116465	     -3.90630354	      1.43057063	      4.39775101	     -1.91593095
      1.37000000	   -183.55737661	     70.79025509	   -162.16325581	   -154.48064137	   1632.72957038	    228.02717063	     32.25318514	   -106.89012516	    -11.62990372	    148.76878021	     85.73006083	      1.82410127	    -87.08530157	     10.10917842	    -64.75701843	    -74.82118914	     -0.13237593	     18.69797242	     -0.02530996	     45.80419930	     -0.27488576	      5.53941187	    -25.53789200	     -6.28376239	     -4.35015213	     33.84911504	     41.33985119	     28.38114396	    -24.74789476	     -3.31282762	     -3.38371534	      0.78314980	     -0.63472639	     -4.09594148	     -0.19598363	      4.26465241	     -1.64020162	     -3.98799059	      1.71191708
      1.38000000	    188.84012980	   -175.53149286	    134.04998608	     58.31159541	    573.32800521	    -37.94648183	    -12.04937750	     96.03932871	      3.45993518	    131.58590784	     43.39436395	     30.79202486	     46.24330141	     -6.10574698	     39.46601826	     74.44568724	      0.04301366	     34.22407118	     -0.01409421	    -33.00728732	     -7.99849090	     -7.27428495	     12.43495647	      4.49278388	      4.00109273	    -58.88841422	     33.11935797	    -20.40806967	     19.24131957	     18.28177345	    -14.09914579	     -0.81232223	      0.59116756	      3.84825875	      0.03892741	     -3.49201195	      0.79128556	      3.28416329	     -1.21872802
      1.39000000	   -266.28730928	     29.47851047	   -228.68036514	    136.57296275	   1791.45416962	    111.93627325	      0.59822421	    -58.98186065	    -10.74217868	    148.20920162	     71.56432866	     20.43336738	    -28.07992652	   -146.68588362	    -19.99475808	    -45.46005781	     -0.09831268	     17.56417638	     -0.03036950	     10.08130318	     11.28109822	      7.14488295	     -8.39653675	    -11.04233398	     -4.73817651	     27.68191474	     31.53094823	     13.75450743	    -10.57780509	     -3.41006531	    -24.08628314	      0.72950244	     -0.49813782	     -3.55516995	     -0.23349419	      2.71763930	     -0.19497451	     -2.15843379	      0.39817845
      1.40000000	    145.20756413	   -115.09153699	     94.26687071	    -39.42091303	    703.98727005	     59.79269639	      0.78757952	     42.26292751	     -0.25630265	    139.07933130	     42.38111338	     38.21912073	      5.41782338	     28.18538434	      5.23448063	     38.02950684	      0.00112099	     34.00524974	     -0.01714827	     -8.21955688	     -5.78864564	     -3.26576699	      4.69135913	      1.59257292	      1.35864844	    -38.41260741	     22.73502077	     -6.14858608	      8.17090058	     11.59705156	    -34.11969148	     -0.31720558	      0.22606924	      2.07290098	     -0.00471896	     -1.21814249	      0.14568476	      1.38561302	     -0.56842113
      1.41000000	     -5.53756753	    -40.06442975	    -22.51359647	     23.13077361	   1231.60201196	     30.10349283	     -3.60204638	      2.66219402	     -5.26235996	    138.88314001	     51.00727969	     38.04881269	    -13.89508085	    -37.12335337	     -8.44845735	      2.04510918	     -0.03991031	     27.09840474	     -0.02539784	     -2.73145122	     -6.98620710	     -0.47145602	     -0.98454597	      2.62571277	      0.07823544	     -6.01173911	     19.67391975	      2.22523595	     -1.16891972	      3.12964918	    -44.19085455	      0.10966555	     -0.07073544	     -0.65229235	     -0.07373960	      0.35220056	     -0.23506109	     -0.24812916	      0.20483656
      1.42000000	     50.67643447	   -114.25866395	     14.96169936	    -24.09138293	   1052.59267550	    154.53093849	     10.49625361	     -9.81098741	     -3.11064051	    157.73275921	     39.44523197	     54.98676379	     -2.45665172	    -47.50705426	      8.53670987	     10.87118549	      0.01583251	     29.55496557	     -0.03773472	      8.41457208	     15.38912127	      1.36195553	     -9.63193933	    -12.69454176	     -1.58151673	    -27.61818731	     17.12016833	      2.76446205	      0.87224579	      7.17104903	    -57.90134790	     -0.17202039	      0.07091418	      1.16027675	     -0.17922198	      0.15145274	      0.08134551	      0.14879950	     -0.37047682
      1.43000000	     66.21257736	   -109.34898697	     10.19628131	    -56.76364339	   1261.68849854	    -61.64511491	     -1.53607562	     -8.25173194	     -5.30898759	    163.06509768	     50.39015424	     54.73791611	     11.48683510	     -9.81319764	     -4.94718071	      2.10983711	     -0.01112916	     22.42139314	     -0.04604605	    -14.73542511	    -17.58618890	     -3.28841297	      4.79148838	     10.54380862	      1.74576593	    -11.26893874	     12.41812287	     -3.69586015	      1.90681283	      3.19833979	    -65.53143886	     -0.04026052	      0.01336737	     -0.21101418	     -0.37035367	     -0.58434506	     -0.10922833	      0.24979951	      0.24253834
      1.44000000	     22.05103561	    -51.11503801	      8.27840383	     24.61226188	   1117.12958411	    187.75410002	      5.59927014	      6.42427310	     -3.68680683	    150.15513277	     26.58587338	     60.20541792	    -28.07883339	    -56.17801198	     -3.25168972	      8.20948229	     -0.02179454	     29.66663696	     -0.02251410	      7.86943495	     15.97369616	      3.88741862	     -3.25893093	    -12.92015843	     -2.50903236	    -16.02266207	      3.77971526	      5.64623838	      0.34673596	      5.02737696	    -76.04326309	      0.13895379	     -0.08417854	      0.24300837	     -0.06392348	      0.91418601	      0.13395354	     -0.16536740	     -0.41940246
      1.45000000	     87.29116891	    -74.35392192	     37.55470855	    -13.50098258	   1074.16034919	    -61.69565227	     -0.66644055	      7.75637393	     -4.18375340	    133.09223017	     24.83242988	     62.50374510	      5.22287854	     10.39524270	     -7.04498974	      6.35685655	     -0.03213430	     37.66705755	     -0.02533482	     -6.46497821	    -19.07557794	     -5.49418023	     -0.37106374	      8.89437562	      2.11517436	    -11.45882423	     -5.79025665	     -2.80419041	      1.45286555	      4.09934291	    -85.07718929	     -0.24418721	      0.12192447	     -0.11957197	      0.17609732	     -0.79691770	     -0.49448744	      0.41242164	      0.24908825
      1.46000000	    -22.63066501	   -110.35183570	    -39.30919303	    117.14546903	   1216.33578269	    175.34615250	      4.28410525	     12.52360306	     -3.60741558	    198.33257892	     39.06526978	     73.78828511	     -2.55110240	    -82.88149072	      8.39742152	      8.54278770	     -0.03432100	     16.42159631	     -0.03738081	     -1.78484517	     15.30172786	      4.77625775	     -1.77486494	     -9.93210315	     -2.36739234	    -15.28107633	     -4.66570301	      2.33905068	      0.36280280	      5.04587026	    -96.96001056	      0.23390147	     -0.13527405	      0.15719080	     -0.60979044	      0.70913070	      0.48937549	     -0.21100669	     -0.38101145
      1.47000000	    115.63390762	    -90.50185509	     60.42744495	    -35.39347199	   1039.52689323	    -19.29501572	      1.19888936	     12.61239788	     -4.05576831	    139.42211216	      7.94552991	     76.97832398	     17.02064148	     14.43351909	      4.24660174	      9.43256246	     -0.03446305	     41.10690154	     -0.02244827	     -4.66479499	     -6.82293029	     -0.55232022	      3.08639095	     -2.10956947	     -1.34775333	    -14.96135672	    -20.28041807	     -0.47127880	      1.16629869	      4.75132293	   -102.61139670	      0.06540153	     -0.14239046	      0.12341731	      0.19271742	     -0.01467361	      0.00758801	     -0.09354975	     -0.24393335
      1.48000000	     23.56542635	    -47.32642988	      0.50405036	     97.91998624	   1238.57591215	     67.25335624	     -3.53364742	      9.90150256	     -4.71260266	    171.57417481	     10.29822621	     86.94797587	    -34.24481167	    -61.46331148	    -17.45061666	      6.38504491	     -0.03224366	     33.13384993	     -0.03089852	     -1.68373571	      0.00913622	     -1.46422297	     -5.12159158	      3.10481766	      1.67359699	    -10.07847830	    -21.60819923	      0.45859131	      0.91049944	      4.05258905	   -115.87879575	     -0.14999420	      0.17993770	     -0.30042693	     -0.09912274	     -0.16398613	     -0.20530570	      0.42884019	      0.18177037
      1.49000000	    104.85698286	    -74.63195393	     65.31789613	    -21.35801240	   1135.07318073	     59.84361159	      0.68046463	      9.93241922	     -4.27806493	    156.80842929	     -9.68702314	     91.65571432	     -7.71697973	    -12.05732204	      1.86489949	      7.57823699	     -0.03032945	     46.64009995	     -0.02290373	      5.89656851	     -0.07074342	     -0.11158271	     -0.15093071	     -5.89026952	     -1.04284954	    -12.58010528	    -37.32808542	      3.55119478	      1.12472622	      5.00984305	   -119.27546936	      0.00112155	     -0.03342117	     -0.05598957	      0.18211871	      0.34667341	     -0.24483321	      0.02439272	     -0.24589548
      1.50000000	     72.02106172	   -112.29462776	     24.06819999	     52.16213812	   1218.46169707	     24.18169845	      5.41836110	     10.42175869	     -2.98109542	    185.22716239	      5.56744287	     97.88998875	      8.22248635	    -23.46399462	      0.41539580	      3.37105076	     -0.03886961	     40.86786567	     -0.03542298	     -7.72123118	     -2.12251241	     -0.40224527	     -1.06602743	      1.38291557	      0.25718480	     -8.92069523	    -44.78956546	     -2.01775152	      0.94815073	      2.00062160	   -127.24723846	     -0.01667868	      0.01435246	      0.00596779	     -0.26517958	     -0.24650602	      0.13961088	      0.15418578	     -0.00400089
      1.51000000	     85.98350783	    -96.05063637	     42.57904100	     64.72639388	   1201.27989002	     53.36267062	     -3.28969335	     15.05389767	     -4.05713617	    182.30671723	    -15.97478551	    104.53735311	      1.39843590	    -35.78936383	      1.17508631	      9.97064567	     -0.03248552	     46.71886219	     -0.03093402	     -3.21874826	      6.35034653	      2.40676152	      1.45610745	     -8.18507877	     -1.88312869	    -13.38787695	    -52.12640881	      1.04552192	      1.64704322	      5.38686432	   -132.19249900	      0.12180033	     -0.10930675	      0.03775805	     -0.03160337	      0.34011288	      0.27580679	     -0.03176960	     -0.42385362
      1.52000000	     87.43385206	    -86.25805104	     42.03725081	     55.12301334	   1192.73073176	      9.25888514	      1.92102799	     11.88799682	     -4.36951128	    175.86971460	    -25.09552909	    109.40702630	    -10.74422776	    -37.39510114	     -8.20848024	      5.99082204	     -0.03513739	     53.74790647	     -0.02951986	     -5.02584173	     -7.11190043	     -2.46006227	      0.42858515	      3.61660794	      1.15063492	    -11.42247499	    -64.08879317	     -1.23519235	      1.75343588	      4.98327167	   -135.90581101	     -0.12499225	      0.09697264	     -0.13962838	      0.11825601	     -0.37234819	     -0.18412930	      0.36659607	      0.07558885
      1.53000000	    129.84357720	    -93.73509462	     88.79371104	     30.47505027	   1177.81012046	     73.87126373	     -1.23071224	     19.61654339	     -3.65013450	    199.67267512	    -28.48768176	    115.85384727	    -21.84710463	    -14.76037613	     -0.64564391	     12.98418418	     -0.02960135	     52.65780947	     -0.02947488	      8.19858897	     -2.38503902	      0.55449313	     -6.93688668	     -0.64973977	     -1.09690766	    -16.36940057	    -70.57830200	      5.92079744	     -2.67950106	      6.27995214	   -140.87347140	      0.13849694	     -0.15362656	      0.28373426	     -0.22418179	      0.76675125	     -0.33470906	     -0.45561491	      0.10226635
      1.54000000	     20.29161210	   -146.22100277	    -35.16553904	    149.06918740	   1280.55396276	   -111.86755695	     -1.57407233	     -1.68260422	     -5.38514795	    161.10765011	    -47.23409658	    118.90686723	     79.23959969	    -90.45667846	     23.13891833	     -3.32077616	     -0.05237562	     70.70619297	     -0.03989048	    -31.36350896	      3.70522787	     -0.16052451	     17.43134608	    -10.58396329	     -0.53135993	     -4.63006642	    -90.89342607	    -14.17458248	     11.65802832	      3.80949555	   -141.38232016	     -0.20692739	      0.15183061	     -0.72867046	      0.66389651	     -1.70604567	      1.11133505	      1.39517597	     -1.11998814
      1.55000000	    267.66063856	     22.87111646	    223.97574590	   -158.04580238	   1203.23246098	    291.74816797	      0.43865955	     34.70130207	     -2.80448481	    233.13846776	    -44.40140638	    126.77499775	   -182.05379945	     55.99760454	    -77.74362768	     24.47239923	     -0.00038498	     57.93378848	     -0.00681149	     39.80700250	      1.42521449	      1.08843576	    -24.40053091	      7.66868775	      0.54384322	    -23.36788297	    -85.71161730	     23.01763293	    -13.70433635	      8.41913314	   -150.82362777	      0.23693079	     -0.11649879	      0.83902429	     -0.84595791	      2.69424805	     -1.58528360	     -1.66100496	      1.36414493
      1.56000000	     43.35642892	   -186.31772490	     -2.28493477	    146.36397676	   1241.38861217	   -126.72375759	      0.35051867	     -1.25881385	     -4.78921914	    172.89738862	    -69.00088976	    128.69395362	    107.20394292	    -87.13552543	     55.93631919	     -2.51669825	     -0.05748120	     82.57682576	     -0.04246909	    -23.59072596	     -3.91844592	     -1.07502214	     12.92987228	     -9.10403615	     -1.76622428	     -6.66484352	   -110.90063982	    -11.92643631	      9.44883842	      4.81922587	   -146.68973331	     -0.12819330	     -0.05859251	     -0.53573392	      0.55792697	     -1.47593131	      0.84002770	      0.98902014	     -1.10333513
      1.57000000	    149.20955046	    -54.27616175	     99.41398075	     11.31125414	   1302.64677526	     51.86629916	     -2.24556115	     14.71159031	     -4.42422671	    197.46419311	    -69.06049078	    130.66576592	    -54.79528542	    -27.55392365	    -30.44699808	      8.85387048	     -0.02791291	     80.81836226	     -0.02344001	      2.15897713	     -1.12961190	     -1.07617288	     -6.45164296	      3.36995630	      1.58939579	    -12.18805190	   -111.66771251	      3.22437833	     -1.66877787	      6.29651896	   -152.16413665	     -0.07476958	      0.16476166	     -0.09960185	     -0.00522929	      0.21004254	     -0.33985065	      0.01576254	      0.42818999
      1.58000000	    118.68288539	   -107.15680758	     71.49555086	     38.74837175	   1288.10322628	     12.96037373	      2.11969948	      2.83977798	     -4.33602193	    194.77179495	    -80.93295825	    133.49114944	      8.61073611	    -47.43539638	      4.21889624	      2.61971542	     -0.04561226	     91.60804631	     -0.03244658	     -1.49949164	      2.64667543	      0.71314908	      2.32937083	     -5.60178216	     -0.72155237	    -11.31911011	   -126.48701774	      2.31456101	      3.14725647	      6.20200946	   -157.50246052	      0.03756675	      0.00109358	     -0.13327668	      0.03869941	      0.37206187	     -0.09786473	      0.33153503	     -0.39003204
      1.59000000	    208.17553010	    -82.67386780	    141.80365324	     27.46303468	   1163.45411838	     15.80136518	     -1.08796924	     33.11353899	     -2.95068440	    191.53392495	    -92.12269011	    133.01524317	    -30.18677854	    -10.08771368	    -17.34432452	     20.50855901	     -0.02822668	     99.36985487	     -0.01943059	    -13.25613957	     -7.37733475	     -1.19300914	      4.12789468	     -0.70826479	     -0.83079880	    -20.73890260	   -131.78872613	     -6.21413294	      0.70637002	      8.49976954	   -160.68718631	     -0.05513504	     -0.13263920	      0.62197947	     -0.04729176	     -0.89942190	      0.48468892	     -0.12972547	     -0.08841742
      1.60000000	     47.90121818	    -95.73545141	     31.28165035	     48.77758177	   1482.73121286	    -49.93877503	     -0.00600957	    -22.24972870	     -6.21751519	    184.59347623	    -85.19574068	    130.48083490	     18.34664636	    -82.15768654	     17.89894733	    -11.75637540	     -0.05342398	     98.99533900	     -0.03814072	     10.82911047	      3.67451410	      0.15615590	    -15.96384341	      1.73836976	      0.98694457	     -1.95607180	   -134.45668995	      8.17648440	     -2.14595360	      4.19811940	   -161.03851271	      0.01846566	      0.15401619	     -0.93453151	      0.16663576	      0.98293641	     -0.66608924	      0.07688337	      0.27468688
      1.61000000	    217.86968815	    -44.00702186	    151.16457590	     23.17639416	   1133.29903007	     87.00694217	     -2.21852303	     43.66038033	     -2.34896012	    180.88758441	   -104.42846508	    132.03441592	    -50.36495845	    -22.35512665	    -28.98635836	     26.41816575	     -0.02473031	    110.95266612	     -0.01477581	    -14.59781311	      2.23110431	      1.80519684	     17.49304889	    -12.17166432	     -2.74577089	    -23.64980696	   -144.45133085	     -5.85961237	      5.45495396	      9.98848229	   -169.44789676	      0.04962499	     -0.23089060	      0.87575440	      0.06956880	     -0.64211572	      0.84051737	      0.11767501	     -0.80153176
      1.62000000	     91.39026037	   -103.98429578	     62.82408059	     -8.97058726	   1484.65051567	    -81.55406431	      5.44174533	    -20.94214675	     -5.40940839	    184.10738965	    -95.26757618	    131.69273404	     18.89966988	    -54.86253219	     13.90321959	    -13.00002857	     -0.05528560	    110.04960724	     -0.03612148	      3.45321769	     -2.88562797	     -1.23704731	    -10.26505689	      3.93339138	      1.38907714	     -0.23546238	   -145.52166412	      4.37551745	     -0.56701129	      0.82269195	   -175.49605568	     -0.03368885	      0.15361319	     -0.70326114	     -0.01023920	      0.45819181	     -0.51378441	      0.25766943	      0.24810906
      1.63000000	    187.02390085	     -7.93701950	    140.43555800	    -21.27624107	   1323.29731551	     68.85588617	     -3.60434840	     16.99492704	     -4.29498677	    173.19845341	   -107.11530720	    128.60326465	    -64.30137147	    -22.37296761	    -28.42052957	     11.88889868	     -0.03252217	    122.18072905	     -0.02166703	      1.13328897	      2.39632859	      0.24464147	     -5.24780432	     -2.39950586	     -0.54978315	    -14.71234011	   -155.61676227	      3.01287259	     -1.68645456	      7.98309063	   -179.64016219	      0.00160591	     -0.03319431	      0.12752197	      0.14597050	      0.28687447	     -0.14751850	     -0.26476590	      0.08906711
      1.64000000	     50.27702039	   -218.01626050	      2.29448226	     75.84714285	   1518.31522008	   -272.71906382	      9.25876231	    -14.93756054	     -4.90937065	    183.94204198	    -91.99263606	    124.76967550	    136.73664678	    -85.31684233	     41.10192923	    -12.11391871	     -0.08076520	    114.72261111	     -0.05965548	    -22.54153912	    -17.80966930	     -4.26268868	     28.20324842	     -4.98008771	     -0.66059668	     -5.06075199	   -148.40842531	    -11.01679301	     13.21508568	      5.96808559	   -188.14232455	     -0.17647272	     -0.01517220	     -0.62248448	     -0.36286216	     -1.49711231	      0.34759986	      1.34949377	     -1.11653684
      1.65000000	    296.50514851	    162.52033400	    271.11657670	   -101.33128501	   1118.15760537	    316.21063479	    -14.32472536	     50.40581859	     -2.35563510	    146.52892772	   -116.65946992	    119.63872424	   -230.20247147	     30.74056359	    -66.29987357	     40.84479027	      0.01144696	    132.26862213	      0.01757229	     21.97802433	     21.76746280	      5.23502045	    -51.08332074	      4.33313946	      0.15812788	    -28.42302440	   -162.39786593	     14.93060854	    -20.22378997	     11.39464894	   -185.82898841	      0.18881928	     -0.04473367	      1.31538858	      0.79042521	      1.86356546	     -0.37033486	     -2.13936395	      1.65850506
      1.66000000	     17.54239677	   -167.55335814	     -6.50325004	    -46.96221615	   1735.24128554	   -178.62371620	     14.35822234	    -53.93192925	     -6.27379606	    185.90841476	    -82.74633294	    116.85669643	    111.27643780	    -66.80882670	     29.20400355	    -35.82003900	     -0.09567142	    112.71645755	     -0.07092915	    -14.80062531	    -12.36067059	     -2.71235509	     27.21651248	     -5.19479225	      0.35325388	     10.24095916	   -141.78911428	     -3.90012557	     15.51754135	     -2.63359508	   -196.45222426	     -0.04513951	      0.15870075	     -1.46156607	     -0.75044381	     -0.41674614	     -0.10538981	      1.92240994	     -1.22517657
      1.67000000	     46.47682094	      4.43582142	     48.14237030	    163.21533637	   1353.33001124	    -62.41331251	    -31.60364098	    -44.08922660	     -1.78820958	    141.06840305	   -110.55920755	    111.57816412	    -27.48419866	    -61.39858202	    -12.28694914	    -34.08506762	     -0.02690295	    128.67039753	     -0.01844012	     -5.92750410	     -0.11895612	     -0.25459484	     -5.61759448	     -3.08802361	     -1.75653419	     72.76737188	   -154.54614504	     -4.33126471	     -4.67225762	   -126.85130204	   -194.40450049	     -0.10300046	     -0.23751700	      1.42282691	      0.59467532	     -0.77306903	      0.47051562	     -0.95553328	      0.22156091
      1.68000000	     11.39608152	      0.83927620	     42.82588766	   -276.51896634	   1945.41617982	     87.02828971	     22.55320364	   -148.67980946	     -0.67782766	    171.80158553	    -86.96592302	    104.67252446	    -41.32960089	     21.08580766	     -9.84215856	   -102.49885619	     -0.08401582	    112.85114891	     -0.04467808	      3.74313161	     -2.48128905	     -0.47736938	      0.41374706	     -0.69316021	      0.99989891	    102.83033503	   -133.59317012	      6.62161743	      3.68215338	   -132.34114560	   -199.59975863	      0.07612608	      0.18069243	     -1.61495162	     -0.70567679	      0.85228897	     -0.59565658	      0.70725203	     -0.16193415
      1.69000000	     37.64101145	    -49.69231204	     39.45851905	    356.76752979	   1254.47186896	   -172.77255860	    -27.71405984	    -17.69744116	     22.33335765	    113.98633669	   -111.46049354	     95.50535404	     57.64919981	    -70.74718463	      8.46858424	    -22.96282748	     -0.04006785	    125.66767361	     -0.03185022	    -10.09344089	     -1.18341137	     -0.67583467	     -3.15696147	     -3.44329501	     -1.79003709	     82.52879160	   -140.63159404	     -5.73169860	     -1.02854072	   -159.04762461	   -191.72539666	     -0.12254973	     -0.20535219	      2.13143247	      0.58306365	     -0.81240607	      0.41514461	     -0.39933600	     -0.17006622
      1.70000000	    -99.84034801	     16.51393596	     -8.82559115	   -393.95768278	   2081.29294324	    230.77830450	     77.85322933	   -233.96550010	     29.59223931	    148.56740160	    -77.20045669	     84.74113451	    -92.89536618	     22.10284080	    -17.81602722	   -156.55490218	     -0.07854871	    100.38263983	     -0.03581380	      0.83335885	      1.63119061	      1.20693055	     -4.53984083	     -0.60455615	      1.02810074	    142.12092947	   -109.22776786	      5.96654582	      0.77805063	   -185.46279564	   -185.34544696	      0.14672903	      0.17010569	     -2.32409578	     -0.61944850	      0.84142164	     -0.25091627	      0.33544487	      0.11192670
      1.71000000	     33.61659902	    -25.34873804	     45.60161707	    448.72554633	   1107.97911821	   -257.89961477	    -53.96530323	      8.60675087	     32.54620938	     91.34151832	    -94.60660024	     74.21316263	     83.60685228	    -69.71061688	     13.61207582	     -6.88208661	     -0.03780303	    100.10380552	     -0.03849873	     -6.10082916	     -5.35169090	     -2.18593514	      3.82788258	     -2.55042599	     -1.38940765	     86.01626817	   -105.77092964	     -4.14346586	      2.19201614	   -181.77132902	   -169.82780536	     -0.16335284	     -0.16444645	      2.90897623	      0.33806923	     -0.68403491	      0.03204956	      0.03607328	     -0.37072141
      1.72000000	   -137.96615769	     32.55101448	    -47.71597885	   -278.55149713	   1842.34145986	    116.51394119	     45.01607501	   -234.13203296	     26.34192956	    106.58389144	    -67.29114233	     60.51853898	    -48.07405796	     16.88976562	     -9.31721097	   -155.16174458	     -0.07091164	     83.39194272	     -0.03609291	     -0.88332767	      4.65232988	      1.88512139	     -2.93173148	     -4.65276094	     -0.32069277	    162.32714266	    -82.70489188	      3.26222615	      0.71999914	   -236.66869430	   -157.45102283	      0.12457226	      0.03756397	     -1.70652338	     -0.32599896	      0.54138907	      0.04648904	      0.10210698	     -0.11001300
      1.73000000	   -138.86325050	     -5.53424111	    -62.56350325	     38.22035709	   1472.95550376	    -69.82918820	     19.85984558	   -164.15794662	     43.08404904	     78.49658597	    -62.25809573	     48.96444147	     16.36914489	    -26.10487613	     -1.28448999	   -113.86612177	     -0.05839307	     70.12706476	     -0.03626963	     -3.21865664	     -7.99216281	     -2.34261761	     -4.82930055	      2.93467944	      0.43595664	    148.57459201	    -67.84400572	     -0.49263752	     -0.53610014	   -250.11262038	   -136.17590833	     -0.09224344	      0.02275998	      0.18858458	     -0.00933345	     -0.23606130	     -0.24495056	      0.02453907	      0.15225616
      1.74000000	   -216.72915480	    -11.54303068	   -119.66221220	   -114.35739972	   1499.59168992	     99.69364248	     66.18528433	   -235.73485770	     47.56130875	     66.40931033	    -45.72176972	     36.57243794	     -0.52740559	    -14.14225380	      4.17607458	   -161.81221430	     -0.06830041	     54.41042084	     -0.03782366	     -3.48530453	      8.71956965	      3.03996902	      6.94065991	     -9.13617096	     -1.26857104	    170.42863261	    -48.86921252	      0.17378208	      4.40740576	   -270.81070182	   -113.05194026	      0.13727726	     -0.03229785	     -0.82250905	     -0.09828363	      0.25281938	      0.42522641	      0.36383126	     -0.57226564
      1.75000000	   -208.72045965	    -22.27552021	   -129.73803171	     -3.89638726	   1353.87072855	    -52.74213243	     41.13157387	   -201.71272628	     51.22666908	     61.95400490	    -24.05557890	     31.94047882	      4.34429451	    -11.37798726	     -7.68843748	   -142.51484009	     -0.05006756	     29.71189821	     -0.03202933	     -2.94591565	    -17.64641844	     -5.40746526	    -16.01447317	     11.95663395	      1.84762293	    170.73727985	    -28.39258705	     -0.32896168	     -5.13989847	   -283.37526880	    -83.30545412	     -0.21612120	      0.08834812	     -0.10450130	     -0.06301144	     -0.45444740	     -0.66190330	     -0.29937101	      0.78161325
      1.76000000	   -243.46872485	    -27.29977527	   -155.77666724	    -53.20306194	   1247.54549131	    112.31086490	     58.22887923	   -221.29478172	     53.55749857	     46.50792044	    -11.50465211	     21.40018192	     18.87465208	     -8.73810220	     12.93251494	   -157.19490203	     -0.05335818	     12.97179258	     -0.03242907	     -2.90425877	     13.14167804	      4.46362889	     10.77001424	    -13.75945323	     -2.34757422	    185.66969106	     -9.25814507	      0.60009980	      5.68902931	   -301.57159873	    -53.37396494	      0.19609815	     -0.11287208	     -0.24178551	     -0.05972905	      0.43873766	      0.57197694	      0.35087091	     -0.87547058
      1.77000000	   -301.77228344	     -0.24880803	   -210.44854669	     48.36692054	   1195.02884723	     52.86818111	     50.46478990	   -214.99166469	     55.60630075	     42.50526629	     11.45330469	     13.82022185	    -13.16371975	    -36.78892706	     -5.18186436	   -158.28984247	     -0.04178264	    -10.09947949	     -0.03141315	     -1.04538691	    -10.29988585	     -3.18893363	    -10.13344582	      6.08598405	      1.02027400	    195.13637743	      9.69989504	      1.01250062	     -2.74849612	   -315.56408356	    -27.14421422	     -0.11424865	      0.05492627	     -0.07069551	     -0.05962401	     -0.12835491	     -0.48222506	     -0.13060263	      0.42911885
      1.78000000	   -271.12771547	    -34.08524933	   -202.21364634	    -21.53878750	   1155.86170671	     70.34509561	     55.32490256	   -221.34525158	     52.92404405	     40.67584616	     17.56932534	     16.82993228	     14.49319343	     -3.24702769	      6.46709368	   -164.67617565	     -0.04144503	    -16.96522764	     -0.03148907	     -3.37194975	      1.81364023	      0.93735520	      2.20720766	     -4.27489726	     -0.77013755	    206.21698702	     13.98200532	      0.03835144	      2.09754777	   -328.13935205	     -9.32323126	      0.04964490	     -0.03272888	     -0.10392527	     -0.04798344	      0.09540521	      0.15496495	      0.15372414	     -0.29477988
      1.79000000	   -321.64996063	    -20.18796508	   -245.20039413	      5.63401022	   1156.86607461	     76.43733994	     54.35921522	   -232.21885005	     52.65439814	     29.74862643	     25.28390951	      5.99216450	      7.95905458	    -25.60568137	      4.60580009	   -170.89229837	     -0.03768099	    -20.27478141	     -0.03008072	     -1.63620777	     -1.44467016	     -0.18604160	     -1.97853909	     -1.29918387	     -0.30996962	    219.84923491	     18.07231889	      0.76699382	      0.57888144	   -343.70435535	      4.46106767	      0.00547762	     -0.01224616	     -0.08277433	     -0.03686385	      0.07949206	     -0.04932137	      0.05638283	     -0.08937467
      1.80000000	   -311.99187895	     -9.03205568	   -244.13236177	     21.35433723	   1159.46524997	     65.99892187	     59.66671590	   -233.00738555	     51.47064548	     25.64148685	     26.84214122	      5.20979360	     -0.32112940	    -14.76023832	      1.91109545	   -174.95081592	     -0.03737158	    -19.88102230	     -0.03346591	     -2.14567160	     -2.90048490	     -0.72016994	     -3.60978260	      0.18598090	      0.04444399	    227.08890815	     17.76523531	      0.47029376	     -0.25130572	   -349.99242301	      7.00366255	     -0.01815818	      0.01117929	     -0.10868552	     -0.04813600	      0.00467715	     -0.10244494	      0.00715072	      0.04057596
