Model Marker Errors from IK
version=1
nRows=238
nColumns=4
inDegrees=no
endheader
time	total_squared_error	marker_error_RMS	marker_error_max
      0.00000000	      0.33170322	      0.11756261	      0.27646865
      0.01000000	      0.33141747	      0.11751196	      0.27691508
      0.02000000	      0.33362819	      0.11790324	      0.27771533
      0.03000000	      0.33754641	      0.11859356	      0.27831693
      0.04000000	      0.34133040	      0.11925645	      0.27806407
      0.05000000	      0.34354909	      0.11964341	      0.27719843
      0.06000000	      0.34549791	      0.11998227	      0.27620547
      0.07000000	      0.34712766	      0.12026493	      0.27528184
      0.08000000	      0.34862898	      0.12052472	      0.27440061
      0.09000000	      0.34973961	      0.12071654	      0.27363410
      0.10000000	      0.35044177	      0.12083766	      0.27322523
      0.11000000	      0.35075576	      0.12089178	      0.27249021
      0.12000000	      0.35064541	      0.12087276	      0.27238225
      0.13000000	      0.35032891	      0.12081820	      0.27210787
      0.14000000	      0.34985713	      0.12073682	      0.27204409
      0.15000000	      0.34934839	      0.12064901	      0.27199019
      0.16000000	      0.34859351	      0.12051859	      0.27196380
      0.17000000	      0.34798317	      0.12041303	      0.27178752
      0.18000000	      0.34726150	      0.12028811	      0.27166186
      0.19000000	      0.34746824	      0.12032391	      0.27151757
      0.20000000	      0.34543600	      0.11997153	      0.27076312
      0.21000000	      0.34617010	      0.12009894	      0.27014408
      0.22000000	      0.34618297	      0.12010117	      0.26920281
      0.23000000	      0.34808556	      0.12043075	      0.26818878
      0.24000000	      0.35042806	      0.12083530	      0.26718823
      0.25000000	      0.35213058	      0.12112848	      0.26591004
      0.26000000	      0.35558161	      0.12172058	      0.26474389
      0.27000000	      0.35818609	      0.12216555	      0.26348190
      0.28000000	      0.36160146	      0.12274660	      0.26224523
      0.29000000	      0.36395840	      0.12314598	      0.26139274
      0.30000000	      0.36616561	      0.12351883	      0.26052711
      0.31000000	      0.36746997	      0.12373863	      0.25992738
      0.32000000	      0.36799209	      0.12382651	      0.25935238
      0.33000000	      0.36763723	      0.12376679	      0.25899424
      0.34000000	      0.36662384	      0.12359609	      0.25872352
      0.35000000	      0.36511186	      0.12334097	      0.25857623
      0.36000000	      0.36322030	      0.12302105	      0.25859070
      0.37000000	      0.36116811	      0.12267303	      0.25867724
      0.38000000	      0.35930964	      0.12235700	      0.25892726
      0.39000000	      0.35723912	      0.12200395	      0.25890864
      0.40000000	      0.35587578	      0.12177092	      0.25939614
      0.41000000	      0.35383450	      0.12142119	      0.25959246
      0.42000000	      0.35279527	      0.12124274	      0.26022892
      0.43000000	      0.35090502	      0.12091750	      0.26068074
      0.44000000	      0.34828002	      0.12046438	      0.26098883
      0.45000000	      0.34514296	      0.11992063	      0.26116772
      0.46000000	      0.34200090	      0.11937352	      0.26125307
      0.47000000	      0.33897408	      0.11884410	      0.26145270
      0.48000000	      0.33639915	      0.11839185	      0.26167487
      0.49000000	      0.33416172	      0.11799748	      0.26186326
      0.50000000	      0.33234402	      0.11767611	      0.26205845
      0.51000000	      0.33097495	      0.11743348	      0.26226159
      0.52000000	      0.33003446	      0.11726652	      0.26243879
      0.53000000	      0.32967590	      0.11720280	      0.26260657
      0.54000000	      0.32981253	      0.11722708	      0.26269276
      0.55000000	      0.33026139	      0.11730683	      0.26277679
      0.56000000	      0.33127144	      0.11748607	      0.26274828
      0.57000000	      0.33261729	      0.11772448	      0.26271750
      0.58000000	      0.33405636	      0.11797888	      0.26263762
      0.59000000	      0.33567622	      0.11826457	      0.26260671
      0.60000000	      0.33710478	      0.11851596	      0.26249152
      0.61000000	      0.33842947	      0.11874859	      0.26231961
      0.62000000	      0.33967175	      0.11896634	      0.26217735
      0.63000000	      0.34011772	      0.11904441	      0.26200521
      0.64000000	      0.34070831	      0.11914772	      0.26185560
      0.65000000	      0.34068571	      0.11914377	      0.26173749
      0.66000000	      0.34082806	      0.11916866	      0.26157339
      0.67000000	      0.34098776	      0.11919657	      0.26144321
      0.68000000	      0.34125364	      0.11924304	      0.26130026
      0.69000000	      0.34191956	      0.11935933	      0.26124032
      0.70000000	      0.34300151	      0.11954802	      0.26128561
      0.71000000	      0.34426191	      0.11976747	      0.26118307
      0.72000000	      0.34558584	      0.11999754	      0.26121980
      0.73000000	      0.34674359	      0.12019838	      0.26128697
      0.74000000	      0.34747411	      0.12032493	      0.26136859
      0.75000000	      0.34791407	      0.12040108	      0.26154290
      0.76000000	      0.34827859	      0.12046414	      0.26169267
      0.77000000	      0.34879371	      0.12055319	      0.26191825
      0.78000000	      0.34952619	      0.12067971	      0.26220590
      0.79000000	      0.35051625	      0.12085050	      0.26254779
      0.80000000	      0.35159873	      0.12103697	      0.26289879
      0.81000000	      0.35268879	      0.12122445	      0.26342899
      0.82000000	      0.35365967	      0.12139118	      0.26373220
      0.83000000	      0.35434076	      0.12150802	      0.26447705
      0.84000000	      0.35464462	      0.12156011	      0.26507947
      0.85000000	      0.35448091	      0.12153204	      0.26576809
      0.86000000	      0.35379851	      0.12141501	      0.26645454
      0.87000000	      0.35258795	      0.12120711	      0.26714010
      0.88000000	      0.35067635	      0.12087810	      0.26775301
      0.89000000	      0.34852315	      0.12050642	      0.26842159
      0.90000000	      0.34601497	      0.12007202	      0.26906379
      0.91000000	      0.34323252	      0.11958827	      0.26969051
      0.92000000	      0.34016123	      0.11905203	      0.27025173
      0.93000000	      0.33714215	      0.11852253	      0.27084325
      0.94000000	      0.33422877	      0.11800932	      0.27125278
      0.95000000	      0.33143497	      0.11751506	      0.27184423
      0.96000000	      0.32894343	      0.11707253	      0.27228955
      0.97000000	      0.32656666	      0.11664881	      0.27271397
      0.98000000	      0.32473612	      0.11632141	      0.27323128
      0.99000000	      0.32366428	      0.11612929	      0.27369212
      1.00000000	      0.32338387	      0.11607897	      0.27415354
      1.01000000	      0.32464239	      0.11630463	      0.27460571
      1.02000000	      0.32708980	      0.11674220	      0.27473299
      1.03000000	      0.32999586	      0.11725966	      0.27448109
      1.04000000	      0.33329044	      0.11784355	      0.27419270
      1.05000000	      0.33537760	      0.11821196	      0.27343784
      1.06000000	      0.33909683	      0.11886562	      0.27326967
      1.07000000	      0.34127051	      0.11924598	      0.27282272
      1.08000000	      0.34308234	      0.11956211	      0.27236426
      1.09000000	      0.34441371	      0.11979387	      0.27196238
      1.10000000	      0.34534032	      0.11995491	      0.27149805
      1.11000000	      0.34558675	      0.11999770	      0.27144008
      1.12000000	      0.34547542	      0.11997837	      0.27104616
      1.13000000	      0.34518008	      0.11992707	      0.27077997
      1.14000000	      0.34477212	      0.11985618	      0.27035497
      1.15000000	      0.34382421	      0.11969131	      0.27012207
      1.16000000	      0.34232985	      0.11943092	      0.26970975
      1.17000000	      0.34082949	      0.11916891	      0.26910607
      1.18000000	      0.33980479	      0.11898963	      0.26843455
      1.19000000	      0.33951266	      0.11893847	      0.26768238
      1.20000000	      0.34003153	      0.11902933	      0.26685179
      1.21000000	      0.34170213	      0.11932137	      0.26594320
      1.22000000	      0.34363563	      0.11965848	      0.26491496
      1.23000000	      0.34645976	      0.12014917	      0.26387234
      1.24000000	      0.35024452	      0.12080365	      0.26280375
      1.25000000	      0.35404608	      0.12145748	      0.26179400
      1.26000000	      0.35842154	      0.12220569	      0.26082589
      1.27000000	      0.36213350	      0.12283687	      0.25997453
      1.28000000	      0.36552032	      0.12340994	      0.25924912
      1.29000000	      0.36795213	      0.12381978	      0.25873437
      1.30000000	      0.36935350	      0.12405535	      0.25831639
      1.31000000	      0.36967217	      0.12410885	      0.25805223
      1.32000000	      0.36905995	      0.12400604	      0.25790609
      1.33000000	      0.36769561	      0.12377661	      0.25791238
      1.34000000	      0.36557109	      0.12341851	      0.25793179
      1.35000000	      0.36322967	      0.12302264	      0.25822200
      1.36000000	      0.36069444	      0.12259256	      0.25824433
      1.37000000	      0.35801493	      0.12213635	      0.25858483
      1.38000000	      0.35580203	      0.12175830	      0.25881551
      1.39000000	      0.35318533	      0.12130975	      0.25901870
      1.40000000	      0.35144218	      0.12101002	      0.25952207
      1.41000000	      0.34945679	      0.12066772	      0.25991647
      1.42000000	      0.34741715	      0.12031506	      0.26030735
      1.43000000	      0.34451932	      0.11981223	      0.26053214
      1.44000000	      0.34148403	      0.11928328	      0.26061347
      1.45000000	      0.33858898	      0.11877657	      0.26070818
      1.46000000	      0.33597907	      0.11831791	      0.26071380
      1.47000000	      0.33382054	      0.11793723	      0.26083244
      1.48000000	      0.33200694	      0.11761642	      0.26085105
      1.49000000	      0.33064593	      0.11737510	      0.26092862
      1.50000000	      0.32960016	      0.11718933	      0.26096521
      1.51000000	      0.32910755	      0.11710173	      0.26093657
      1.52000000	      0.32904110	      0.11708991	      0.26086726
      1.53000000	      0.32932617	      0.11714062	      0.26080747
      1.54000000	      0.33001961	      0.11726388	      0.26077195
      1.55000000	      0.33079819	      0.11740212	      0.26070615
      1.56000000	      0.33214550	      0.11764096	      0.26041280
      1.57000000	      0.33351431	      0.11788312	      0.26024952
      1.58000000	      0.33483992	      0.11811716	      0.26003586
      1.59000000	      0.33623770	      0.11836344	      0.25978471
      1.60000000	      0.33765363	      0.11861240	      0.25953471
      1.61000000	      0.33875843	      0.11880629	      0.25931023
      1.62000000	      0.33976663	      0.11898295	      0.25914208
      1.63000000	      0.34059528	      0.11912796	      0.25896839
      1.64000000	      0.34128643	      0.11924877	      0.25880578
      1.65000000	      0.34221155	      0.11941028	      0.25864057
      1.66000000	      0.34261574	      0.11948078	      0.25853594
      1.67000000	      0.34337937	      0.11961385	      0.25847294
      1.68000000	      0.34421989	      0.11976016	      0.25844404
      1.69000000	      0.34537430	      0.11996081	      0.25846676
      1.70000000	      0.34677150	      0.12020321	      0.25840321
      1.71000000	      0.34805826	      0.12042603	      0.25853709
      1.72000000	      0.35002399	      0.12076561	      0.25857984
      1.73000000	      0.35165979	      0.12104748	      0.25868451
      1.74000000	      0.35300211	      0.12127828	      0.25882521
      1.75000000	      0.35395371	      0.12144164	      0.25906462
      1.76000000	      0.35477188	      0.12158191	      0.25927356
      1.77000000	      0.35570242	      0.12174126	      0.25952778
      1.78000000	      0.35679097	      0.12192740	      0.25992929
      1.79000000	      0.35810501	      0.12215172	      0.26034241
      1.80000000	      0.35960959	      0.12240806	      0.26079459
      1.81000000	      0.36121090	      0.12268029	      0.26134045
      1.82000000	      0.36279763	      0.12294945	      0.26201995
      1.83000000	      0.36421299	      0.12318905	      0.26262090
      1.84000000	      0.36533590	      0.12337880	      0.26321504
      1.85000000	      0.36604176	      0.12349794	      0.26427610
      1.86000000	      0.36622168	      0.12352828	      0.26494395
      1.87000000	      0.36571612	      0.12344299	      0.26557693
      1.88000000	      0.36459179	      0.12325309	      0.26645586
      1.89000000	      0.36280459	      0.12295063	      0.26731116
      1.90000000	      0.36041699	      0.12254540	      0.26812267
      1.91000000	      0.35746133	      0.12204189	      0.26896515
      1.92000000	      0.35412758	      0.12147146	      0.26966133
      1.93000000	      0.35048992	      0.12084596	      0.27032593
      1.94000000	      0.34646169	      0.12014951	      0.27081955
      1.95000000	      0.34272664	      0.11950011	      0.27137546
      1.96000000	      0.33889096	      0.11882953	      0.27181313
      1.97000000	      0.33536589	      0.11820989	      0.27209149
      1.98000000	      0.33216407	      0.11764425	      0.27236546
      1.99000000	      0.32936397	      0.11714734	      0.27263028
      2.00000000	      0.32736563	      0.11679142	      0.27288243
      2.01000000	      0.32645600	      0.11662904	      0.27310455
      2.02000000	      0.32716359	      0.11675537	      0.27330418
      2.03000000	      0.32875669	      0.11703929	      0.27289529
      2.04000000	      0.33085757	      0.11741266	      0.27229142
      2.05000000	      0.33353100	      0.11788607	      0.27175054
      2.06000000	      0.33623875	      0.11836363	      0.27111925
      2.07000000	      0.33826216	      0.11871923	      0.27047990
      2.08000000	      0.33979051	      0.11898713	      0.26979369
      2.09000000	      0.34080601	      0.11916480	      0.26915446
      2.10000000	      0.34150088	      0.11928622	      0.26853644
      2.11000000	      0.34156678	      0.11929773	      0.26820097
      2.12000000	      0.34120436	      0.11923443	      0.26787789
      2.13000000	      0.34041373	      0.11909620	      0.26755071
      2.14000000	      0.33942254	      0.11892269	      0.26737753
      2.15000000	      0.33807183	      0.11868583	      0.26712230
      2.16000000	      0.33687132	      0.11847491	      0.26697219
      2.17000000	      0.33494514	      0.11813572	      0.26670842
      2.18000000	      0.33386829	      0.11794566	      0.26638849
      2.19000000	      0.33311101	      0.11781182	      0.26601704
      2.20000000	      0.33284474	      0.11776473	      0.26550804
      2.21000000	      0.33373264	      0.11792170	      0.26483668
      2.22000000	      0.33419267	      0.11800294	      0.26412212
      2.23000000	      0.33611994	      0.11834271	      0.26322507
      2.24000000	      0.33839209	      0.11874203	      0.26233109
      2.25000000	      0.34081294	      0.11916602	      0.26106757
      2.26000000	      0.34412098	      0.11974295	      0.25989384
      2.27000000	      0.34714846	      0.12026853	      0.25884025
      2.28000000	      0.35033453	      0.12081917	      0.25784505
      2.29000000	      0.35329447	      0.12132849	      0.25694649
      2.30000000	      0.35577225	      0.12175321	      0.25628382
      2.31000000	      0.35748871	      0.12204656	      0.25579201
      2.32000000	      0.35837008	      0.12219692	      0.25538815
      2.33000000	      0.35860452	      0.12223688	      0.25523025
      2.34000000	      0.35789262	      0.12211549	      0.25512467
      2.35000000	      0.35671268	      0.12191402	      0.25514020
      2.36000000	      0.35505150	      0.12162982	      0.25529697
      2.37000000	      0.35335376	      0.12133867	      0.25563812
